,name_x,free_bikes,longitude,latitude,fsq_id,category_id,category_name,distance,country,city,address,name_y
0,Benjamin Godard - Victor Hugo,5.0,2.276,48.866,,,,,,,,
1,André Mazet - Saint-André des Arts,22.0,2.339,48.854,,,,,,,,
2,Faubourg Du Temple - Republique,26.0,2.365,48.868,,,,,,,,
3,Beaux-Arts - Bonaparte,18.0,2.335,48.856,,,,,,,,
4,Toudouze - Clauzel,5.0,2.337,48.879,,,,,,,,
5,Charonne - Robert et Sonia Delaunay,9.0,2.393,48.856,,,,,,,,
6,Mairie du 12ème,15.0,2.388,48.841,,,,,,,,
7,Square Boucicaut,30.0,2.325,48.851,,,,,,,,
8,Harpe - Saint-Germain,41.0,2.344,48.852,,,,,,,,
9,Jouffroy d'Abbans - Wagram,3.0,2.301,48.882,,,,,,,,
10,Guersant - Gouvion-Saint-Cyr,11.0,2.288,48.883,,,,,,,,
11,Alibert - Jemmapes,5.0,2.366,48.871,,,,,,,,
12,Caumartin - Provence,3.0,2.328,48.874,,,,,,,,
13,Cassini - Denfert-Rochereau,9.0,2.336,48.838,,,,,,,,
14,Saint-Sulpice,15.0,2.331,48.852,,,,,,,,
15,Raspail - Varenne,5.0,2.326,48.853,,,,,,,,
16,Lacépède - Monge,9.0,2.352,48.844,,,,,,,,
17,Saint-Romain - Cherche-Midi,13.0,2.321,48.847,,,,,,,,
18,André Karman - République,13.0,2.385,48.91,,,,,,,,
19,Pierre et Marie Curie - Maurice Thorez,3.0,2.377,48.816,,,,,,,,
20,Bois de Vincennes - Gare,5.0,2.471,48.836,,,,,,,,
21,Silly - Galliéni,20.0,2.233,48.836,,,,,,,,
22,Place Nelson Mandela ,6.0,2.197,48.862,,,,,,,,
23,Le Brun - Gobelins,15.0,2.353,48.835,,,,,,,,
24,Gare du Nord - Place de Valenciennes,2.0,2.354,48.879,,,,,,,,
25,Grande Armée - Brunel,18.0,2.288,48.876,,,,,,,,
26,Génie - Mozart,3.0,2.373,48.795,,,,,,,,
27,Thouin - Cardinal Lemoine,3.0,2.349,48.845,,,,,,,,
28,Froment - Bréguet,40.0,2.373,48.857,,,,,,,,
29,Notre-Dame-des-Champs - Stanislas,8.0,2.329,48.845,,,,,,,,
30,Morillons - Dantzig,14.0,2.299,48.833,,,,,,,,
31,Grenelle - Dr Finlay,64.0,2.292,48.851,,,,,,,,
32,Chazelles - Courcelles ,2.0,2.303,48.879,,,,,,,,
33,Croulebarde - Corvisart,6.0,2.348,48.831,,,,,,,,
34,Ramponeau - Belleville,4.0,2.379,48.871,,,,,,,,
35,Le Brix et Mesmin - Jourdan,9.0,2.328,48.822,,,,,,,,
36,Romainville - Vaillant-Couturier,6.0,2.447,48.868,,,,,,,,
37,Général Martial Valin - Pont du Garigliano,1.0,2.271,48.838,,,,,,,,
38,Liberté - Vert-de-Maisons,17.0,2.433,48.79,,,,,,,,
39,Porte de Saint-Ouen - Bessières,9.0,2.329,48.898,,,,,,,,
40,Bir Hakeim,30.0,2.29,48.854,,,,,,,,
41,Jules Guesde - Pont du Port à l'Anglais,24.0,2.417,48.796,,,,,,,,
42,Cambrai - Benjamin Constant,4.0,2.381,48.896,,,,,,,,
43,De Toqueville - Terrasse,5.0,2.314,48.882,,,,,,,,
44,Michel-Ange - Parent de Rosan,5.0,2.258,48.841,,,,,,,,
45,Lagny - Victor Basch,6.0,2.426,48.849,,,,,,,,
46,Serrurier,3.0,2.398,48.88,,,,,,,,
47,Théâtre des Amandiers - Palais des sports,11.0,2.214,48.893,,,,,,,,
48,Louis Lejeune - Barbès,3.0,2.327,48.818,,,,,,,,
49,Vaugirard - Monsieur le Prince,23.0,2.341,48.849,,,,,,,,
50,Rond-point du Dr Albert Schweitzer,3.0,2.314,48.79,,,,,,,,
51,Boétie - Ponthieu,9.0,2.308,48.871,,,,,,,,
52,Custine - Ramey,7.0,2.347,48.889,,,,,,,,
53,Pyrénées - Ménilmontant,3.0,2.395,48.869,,,,,,,,
54,Caire - Dussoubs,11.0,2.349,48.868,,,,,,,,
55,Tour d'Auvergne - Rodier,1.0,2.344,48.879,,,,,,,,
56,Assemblée Nationale,28.0,2.32,48.861,,,,,,,,
57,Dunkerque - Alsace,1.0,2.358,48.879,,,,,,,,
58,Liard - Amiral Mouchez,6.0,2.342,48.821,,,,,,,,
59,Gabriel Lamé,33.0,2.386,48.835,,,,,,,,
60,Las Cases - Bourgogne,7.0,2.319,48.859,,,,,,,,
61,Félix Ziem - Armand Gauthier,8.0,2.333,48.889,,,,,,,,
62,Jonquière - Docteur Paul Brousse,9.0,2.319,48.895,,,,,,,,
63,Square Louis XVI,19.0,2.324,48.873,,,,,,,,
64,Youri Gagarine - Karl Marx,2.0,2.359,48.784,,,,,,,,
65,Octave Feuillet - Albéric Magnard,1.0,2.273,48.861,,,,,,,,
66,Ney - Porte de Clignancourt ,5.0,2.346,48.898,,,,,,,,
67,Gay Lussac - Saint-Jacques,11.0,2.342,48.845,,,,,,,,
68,Place Jean-Spire-Lemaître,17.0,2.452,48.847,,,,,,,,
69,Place Georges Guillaumin,1.0,2.302,48.875,,,,,,,,
70,Bellefond - Poissonnière,2.0,2.348,48.878,,,,,,,,
71,Jean Oestreicher - Porte de Champerret,5.0,2.289,48.887,,,,,,,,
72,Alexandre Parodi - Quai de Valmy,6.0,2.367,48.879,,,,,,,,
73,Ségur - d'Estrées,8.0,2.31,48.851,,,,,,,,
74,Granges aux Belles,8.0,2.368,48.876,,,,,,,,
75,Regnault - Patay,39.0,2.377,48.824,,,,,,,,
76,Gare Saint-Lazare - Place de Budapest,2.0,2.327,48.878,,,,,,,,
77,Edgar Quinet - Raspail,6.0,2.33,48.839,,,,,,,,
78,Clignancourt - Ordener,10.0,2.349,48.891,,,,,,,,
79,Dunkerque - Rocroy,2.0,2.351,48.881,,,,,,,,
80,Abbeville - Faubourg Poissonnière,4.0,2.349,48.879,,,,,,,,
81,Boulangers - Cardinal Lemoine,12.0,2.352,48.846,,,,,,,,
82,Boudreau - Auber,4.0,2.329,48.872,,,,,,,,
83,Gare de l'Est - Faubourg-Saint-Martin,2.0,2.359,48.876,,,,,,,,
84,Pereire - Ternes,7.0,2.288,48.88,,,,,,,,
85,Douai - Bruxelles,6.0,2.331,48.883,,,,,,,,
86,Champ de Mars - Cler,38.0,2.307,48.857,,,,,,,,
87,Quai de l'Horloge - Pont Neuf,9.0,2.342,48.857,,,,,,,,
88,Gare Saint-Lazare - Isly,5.0,2.327,48.875,,,,,,,,
89,Ambroise Rendu - Porte Brunet,4.0,2.396,48.884,,,,,,,,
90,Gare de Lyon - Place Louis Armand,3.0,2.373,48.846,,,,,,,,
91,Institut de France,7.0,2.336,48.858,,,,,,,,
92,Porte Pouchet-Bessières,6.0,2.323,48.898,,,,,,,,
93,Vigée-Lebrun - Anselme Payen,8.0,2.311,48.839,,,,,,,,
94,Institut du Monde Arabe - Saint-Germain,32.0,2.356,48.849,,,,,,,,
95,Octave Gréard - Tour Eiffel,22.0,2.293,48.857,,,,,,,,
96,Château - République,6.0,2.416,48.863,,,,,,,,
97,Chartres - La Charbonnière,4.0,2.353,48.885,,,,,,,,
98,Lisbonne - Monceau,4.0,2.31,48.877,,,,,,,,
99,Moncey - Blanche,7.0,2.331,48.88,,,,,,,,
100,Rochechouart lamartine,9.0,2.344,48.877,,,,,,,,
101,Jemmapes - Ecluses Saint-Martin,8.0,2.366,48.877,,,,,,,,
102,Thionville - Ourcq,6.0,2.383,48.889,,,,,,,,
103,Gare du Nord - Hôpital Lariboisière,5.0,2.352,48.882,,,,,,,,
104,Legendre - Clichy,9.0,2.323,48.889,,,,,,,,
105,Quai de la Seine,2.0,2.37,48.884,,,,,,,,
106,Cité Riverin - Château d'Eau,12.0,2.359,48.871,,,,,,,,
107,Mutualité,31.0,2.35,48.848,,,,,,,,
108,Rossini - Laffitte,7.0,2.338,48.873,,,,,,,,
109,Pyrénées - Emmery,1.0,2.392,48.872,,,,,,,,
110,Diderot - Reuilly,38.0,2.386,48.847,,,,,,,,
111,Saint-Ambroise - Parmentier,8.0,2.377,48.862,,,,,,,,
112,Belidor - Gouvion-Saint-Cyr,20.0,2.285,48.88,,,,,,,,
113,Place Balard,9.0,2.278,48.836,,,,,,,,
114,Place de Rhin et Danube,6.0,2.393,48.882,,,,,,,,
115,Roquette - Thiéré,18.0,2.373,48.855,,,,,,,,
116,Berri - Haussmann,4.0,2.308,48.875,,,,,,,,
117,Saint-Maur - Roquette,16.0,2.384,48.859,,,,,,,,
118,11 Novembre 1918 - 8 Mai 1945,8.0,2.538,48.809,,,,,,,,
119,Place Du Général De Gaulle,3.0,2.433,48.869,,,,,,,,
120,Exelmans - Versailles,24.0,2.264,48.841,,,,,,,,
121,Pereire - Rennequin,5.0,2.295,48.884,,,,,,,,
122,Port-Royal - Hôpital du Val-de-Grâce,10.0,2.345,48.838,,,,,,,,
123,Claude Decaen - Cannebière,14.0,2.397,48.838,,,,,,,,
124,Gare d'Austerlitz,9.0,2.364,48.843,,,,,,,,
125,Desaix - Edgar Faure,10.0,2.293,48.853,,,,,,,,
126,Delphine Seyrig - Général Leclerc,6.0,2.398,48.894,,,,,,,,
127,Panthéon - Valette,17.0,2.346,48.847,,,,,,,,
128,Cimetière de Montrouge,4.0,2.322,48.822,,,,,,,,
129,Square Simon Bolivar,9.0,2.383,48.875,,,,,,,,
130,Récollets - Square Villemin,0.0,2.36,48.875,,,,,,,,
131,Amelot - Saint-Sébastien,26.0,2.368,48.861,,,,,,,,
132,Saint-François-Xavier,35.0,2.315,48.852,,,,,,,,
133,Place Marcel Cachin,16.0,2.391,48.814,,,,,,,,
134,Pyramide - Ecole du Breuil ,17.0,2.459,48.822,,,,,,,,
135,Liège - Moscou,3.0,2.326,48.88,,,,,,,,
136,Mairie de Montreuil,5.0,2.441,48.861,,,,,,,,
137,Richard Lenoir - Republique,17.0,2.369,48.867,,,,,,,,
138,Fabre d'Eglantine - Place de la Nation,2.0,2.396,48.847,,,,,,,,
139,Cimetière de Montmartre,5.0,2.333,48.886,,,,,,,,
140,Marne - Germain Dardan,2.0,2.303,48.812,,,,,,,,
141,Bagnolet - Orteaux,7.0,2.398,48.857,,,,,,,,
142,Anatole France - President Roosevelt,14.0,2.381,48.916,,,,,,,,
143,Henry Farman,13.0,2.271,48.834,,,,,,,,
144,Jourdain - Place des Grandes Rigoles,0.0,2.39,48.874,,,,,,,,
145,Rocher - Laborde,10.0,2.323,48.876,,,,,,,,
146,Fontenay - Libération,11.0,2.445,48.848,,,,,,,,
147,Grands Moulins de Pantin,9.0,2.396,48.897,,,,,,,,
148,Gambetta - Saint Fargeau,1.0,2.404,48.871,,,,,,,,
149,Cimetière de Fontenay-sous-Bois,2.0,2.479,48.847,,,,,,,,
150,Gabriel Péri - Francisco Ferrer,11.0,2.407,48.886,,,,,,,,
151,Place de la Reine Astrid,31.0,2.303,48.865,,,,,,,,
152,Lucie Aubrac - Fort,4.0,2.271,48.818,,,,,,,,
153,Pajol - Place Herbert,25.0,2.364,48.893,,,,,,,,
154,Fédération - Suffren,23.0,2.298,48.853,,,,,,,,
155,Hôpital Européen Georges Pompidou ,56.0,2.275,48.838,,,,,,,,
156,Concorde - Stalingrad,11.0,2.382,48.799,,,,,,,,
157,Carducci - Place Hannah Arendt,2.0,2.386,48.877,,,,,,,,
158,Saint-Jacques - Val de Grâce,11.0,2.341,48.842,,,,,,,,
159,Manin - Carrières d'Amérique,5.0,2.392,48.885,,,,,,,,
160,Victor Hugo - Jeanne Jugan,6.0,2.415,48.844,,,,,,,,
161,Porte de Vanves,10.0,2.306,48.828,,,,,,,,
162,Place de la République - Voltaire,13.0,2.365,48.867,,,,,,,,
163,Conservatoire de Musique,16.0,2.403,48.771,,,,,,,,
164,Gare de l'Est - Fidélité,0.0,2.357,48.875,,,,,,,,
165,Championnet - Vauvenargues,16.0,2.332,48.894,,,,,,,,
166,Buisson Saint-Louis - Saint-Maur,16.0,2.372,48.872,,,,,,,,
167,Place Albert Kahn,9.0,2.346,48.896,,,,,,,,
168,Gare du Nord - Denain,0.0,2.354,48.88,,,,,,,,
169,Lecourbe - Jean Maridor,8.0,2.288,48.838,,,,,,,,
170,Grenelle - Violet,33.0,2.295,48.85,,,,,,,,
171,Repos - Cimetière du Père Lachaise,4.0,2.39,48.859,,,,,,,,
172,Mouton Duvernet - Général Leclerc,4.0,2.329,48.832,,,,,,,,
173,Enghien - Faubourg Poissonnière,8.0,2.348,48.872,,,,,,,,
174,Place Robert Guillemard,11.0,2.281,48.836,,,,,,,,
175,Raspail - Chomel,34.0,2.327,48.852,,,,,,,,
176,Marc Sangnier - Porte de Vanves,5.0,2.311,48.825,,,,,,,,
177,Etienne Jodelle - Saint Ouen,1.0,2.326,48.888,,,,,,,,
178,Marcelin Berthelot,19.0,2.233,48.842,,,,,,,,
179,Guy Môquet - Etienne Dolet,2.0,2.298,48.815,,,,,,,,
180,Jean Jaurès - Presles,12.0,2.396,48.907,,,,,,,,
181,Boissière - Etienne Dolet,5.0,2.468,48.876,,,,,,,,
182,Edouard Tremblay - Julian Grimaux,16.0,2.372,48.781,,,,,,,,
183,Bertie Albrecht - Hoche,2.0,2.301,48.876,,,,,,,,
184,Sibelle - Alésia,6.0,2.338,48.827,,,,,,,,
185,Hôtel de Ville de Boulogne Billancourt,23.0,2.242,48.835,,,,,,,,
186,Cevennes - Bergers,23.0,2.281,48.842,,,,,,,,
187,Molière - République,7.0,2.315,48.811,,,,,,,,
188,Chevaleret - Tolbiac,12.0,2.376,48.829,,,,,,,,
189,Hoche - Jean Lolive,1.0,2.403,48.891,,,,,,,,
190,David Weill - Parc Montsouris,2.0,2.334,48.821,,,,,,,,
191,Hôtel de Ville de Nanterre,35.0,2.206,48.892,,,,,,,,
192,Marcadet - Barbès,7.0,2.349,48.89,,,,,,,,
193,Vaneau - Sèvres,15.0,2.32,48.849,,,,,,,,
194,Jean Jaurès - Salvador Allende,4.0,2.303,48.821,,,,,,,,
195,François Debergue - Croix de Chavaux,2.0,2.438,48.857,,,,,,,,
196,Nationale - Place Jules Guesde,17.0,2.242,48.828,,,,,,,,
197,Gabriel Péri - Danielle Casanova,15.0,2.403,48.79,,,,,,,,
198,Route de la Muette - Porte de Neuilly,45.0,2.259,48.88,,,,,,,,
199,Carnot - Pâquerettes,22.0,2.426,48.796,,,,,,,,
200,Tertres - Fontaine,3.0,2.306,48.788,,,,,,,,
201,Gare Rer de Fontenay sous Bois,4.0,2.463,48.844,,,,,,,,
202,Raspail - Manufacture des Oeillets,9.0,2.39,48.809,,,,,,,,
203,Lucie Aubrac - Franklin,1.0,2.444,48.862,,,,,,,,
204,Place de l'Eglise - Vitry-sur-Seine,24.0,2.395,48.792,,,,,,,,
205,Noisy le Sec - Jean-Baptiste Clément,2.0,2.415,48.875,,,,,,,,
206,Marcelle - Thalie,3.0,2.414,48.884,,,,,,,,
207,Henri Ste-Claire Déville - Paul Héroult,18.0,2.172,48.893,,,,,,,,
208,Louis Lumière - Porte de Bagnolet,3.0,2.411,48.864,,,,,,,,
209,Paris - Emile Zola,12.0,2.419,48.855,,,,,,,,
210,Victor Hugo - Galliéni,9.0,2.246,48.838,,,,,,,,
211,Victoire - Chaussée d'Antin,6.0,2.332,48.875,,,,,,,,
212,Proudhon - Président Wilson,0.0,2.358,48.906,,,,,,,,
213,Square Georges Melies,11.0,2.41,48.841,,,,,,,,
214,Galilée - Kléber,4.0,2.291,48.867,,,,,,,,
215,Richard Lenoir - Jean-Pierre Timbaud,9.0,2.369,48.866,,,,,,,,
216,Legendre - Dulong,10.0,2.316,48.885,,,,,,,,
217,Bosquet - Saint-Dominique,20.0,2.304,48.859,,,,,,,,
218,Place de la Porte de Champerret,0.0,2.291,48.886,,,,,,,,
219,Chemin Vert - Saint-Maur,23.0,2.381,48.861,,,,,,,,
220,Quai Panhard et Levassor,25.0,2.384,48.828,,,,,,,,
221,Square du Théâtre du Garde-Chasse,5.0,2.42,48.881,,,,,,,,
222,Botzaris - Parc des Buttes Chaumont,3.0,2.381,48.878,,,,,,,,
223,Faubourg Montmartre - La Fayette,23.0,2.341,48.875,,,,,,,,
224,Joseph Liouville - Croix Nivert,25.0,2.298,48.845,,,,,,,,
225,Place Madeleine Daniélou,7.0,2.282,48.883,,,,,,,,
226,Estrapade - Ulm,9.0,2.345,48.845,,,,,,,,
227,Parmentier - République ,19.0,2.375,48.864,,,,,,,,
228,Lieutenant Chauré - Etienne Marey,5.0,2.406,48.867,,,,,,,,
229,Cujas - Saint-Michel,13.0,2.342,48.848,,,,,,,,
230,Flandre - Alphonse Karr,10.0,2.382,48.895,,,,,,,,
231,Gare de Clamart,5.0,2.272,48.814,,,,,,,,
232,Larmeroux - Baudelaire,6.0,2.281,48.817,,,,,,,,
233,Jean-François Lépine - Stephenson,7.0,2.357,48.886,,,,,,,,
234,Messine - Place Du Pérou,4.0,2.316,48.875,,,,,,,,
235,Beffroy,11.0,2.261,48.887,,,,,,,,
236,Molitor - Chardon-Lagache,11.0,2.266,48.845,,,,,,,,
237,Général De Gaulle - Alouette,8.0,2.418,48.839,,,,,,,,
238,Abbé Carton - Plantes,2.0,2.321,48.828,,,,,,,,
239,Marie-Georges Picquart - Pereire,5.0,2.311,48.889,,,,,,,,
240,Sablons - Georges Mandel,5.0,2.282,48.864,,,,,,,,
241,Gare RER de Vincennes,2.0,2.433,48.848,,,,,,,,
242,Villette - Belleville,8.0,2.376,48.873,,,,,,,,
243,Théophile Gautier - François Millet,22.0,2.273,48.85,,,,,,,,
244,Edouard Vaillant - Galliéni,0.0,2.415,48.858,,,,,,,,
245,Marché Secrétan,2.0,2.373,48.881,,,,,,,,
246,Porte Maillot - Pereire,0.0,2.284,48.878,,,,,,,,
247,Quai de l'Aisne - Général Leclerc,10.0,2.401,48.896,,,,,,,,
248,Mairie du 11ème,28.0,2.379,48.859,,,,,,,,
249,Auguste Cain - Jean Moulin,3.0,2.321,48.826,,,,,,,,
250,Volontaire - Lecourbe,16.0,2.307,48.844,,,,,,,,
251,Lakanal - Commerce,47.0,2.294,48.844,,,,,,,,
252,Miromesnil - La Boétie,6.0,2.316,48.874,,,,,,,,
253,Marseille - Beaurepaire,9.0,2.364,48.872,,,,,,,,
254,Mathurins - Auber,8.0,2.329,48.873,,,,,,,,
255,Saint-Germain - Thenard,24.0,2.347,48.851,,,,,,,,
256,Square d'Anvers,3.0,2.345,48.883,,,,,,,,
257,Arago - Glacière,14.0,2.345,48.835,,,,,,,,
258,Mairie d'Ivry-sur-Seine,27.0,2.384,48.811,,,,,,,,
259,Parc Georges Brassens - Brancion,5.0,2.302,48.832,,,,,,,,
260,Parmentier - Abel Rabaud,12.0,2.372,48.869,,,,,,,,
261,Place Paul Eluard,15.0,2.414,48.767,,,,,,,,
262,Exelmans - Michel-Ange,6.0,2.26,48.843,,,,,,,,
263,Pierret - Madrid,28.0,2.26,48.883,,,,,,,,
264,Reims - Raymond Pitet,12.0,2.296,48.889,,,,,,,,
265,Saint-Vincent - Verdun,18.0,2.254,48.819,,,,,,,,
266,Grand Prieuré - Crussol,10.0,2.369,48.865,,,,,,,,
267,Claude Debussy - Marc Bloch,36.0,2.312,48.91,,,,,,,,
268,Aristide Briand - Gare de Bagneux,8.0,2.321,48.794,,,,,,,,
269,Parc Roger Salengro,29.0,2.311,48.905,,,,,,,,
270,Seine - Flandre,8.0,2.375,48.887,,,,,,,,
271,Hautpoul - Jean Jaurès,5.0,2.387,48.886,,,,,,,,
272,Chemin Vert - Fraternité,7.0,2.446,48.877,,,,,,,,
273,Laumière - Petit,10.0,2.38,48.885,,,,,,,,
274,Wilson - Métallurgie,12.0,2.358,48.909,,,,,,,,
275,Madame de Sanzillon - Mozart,13.0,2.319,48.904,,,,,,,,
276,Mairie du 7ème,12.0,2.319,48.858,,,,,,,,
277,Charonne - Faubourg Saint-Antoine,27.0,2.374,48.852,,,,,,,,
278,Gare Routière de Saint Cloud,15.0,2.222,48.843,,,,,,,,
279,Gare Arcueil - Cachan,16.0,2.328,48.8,,,,,,,,
280,Raspail - Bac,17.0,2.326,48.856,,,,,,,,
281,Gare RER de Gentilly,13.0,2.341,48.814,,,,,,,,
282,Boyer - Ménilmontant,0.0,2.392,48.869,,,,,,,,
283,Aristide Briand - Place de la Résistance,20.0,2.251,48.821,,,,,,,,
284,Place Jean Ferrat,4.0,2.374,48.818,,,,,,,,
285,Villiers de l'Isle Adam - Pyrénées,1.0,2.396,48.867,,,,,,,,
286,Saint Georges - d'Aumale,4.0,2.337,48.878,,,,,,,,
287,Stalingrad - Désiré Chevalier,4.0,2.445,48.857,,,,,,,,
288,Porte d'Ivry,10.0,2.369,48.822,,,,,,,,
289,Saint-Jacques - Soufflot,0.0,2.343,48.847,,,,,,,,
290,Victor Hugo - Ecoles,22.0,2.418,48.805,,,,,,,,
291,Hôpital Bégin,4.0,2.427,48.846,,,,,,,,
292,Belleville - Couronnes,7.0,2.381,48.869,,,,,,,,
293,Charenton - Diderot,12.0,2.379,48.846,,,,,,,,
294,Stephenson - Doudeauville,27.0,2.356,48.889,,,,,,,,
295,Jules Ferry - Faubourg du Temple Paris,18.0,2.368,48.868,,,,,,,,
296,Place de l'Édit de Nantes,5.0,2.378,48.889,,,,,,,,
297,Anatole France - Louise Michel,23.0,2.288,48.889,,,,,,,,
298,Temple - Jean-Pierre Timbaud,28.0,2.366,48.864,,,,,,,,
299,Guynemer - Séverine,25.0,2.279,48.831,,,,,,,,
300,Jean Macé - Faidherbe,24.0,2.383,48.853,,,,,,,,
301,Gaston Roussel - Commune de Paris,2.0,2.433,48.894,,,,,,,,
302,Bienfaisance - Place de Narvik,7.0,2.313,48.877,,,,,,,,
303,Montgallet - Charenton,16.0,2.386,48.843,,,,,,,,
304,Place Jacques Madaule,14.0,2.261,48.824,,,,,,,,
305,Bourse du Travail,7.0,2.362,48.869,,,,,,,,
306,Jacques Callot - Mazarine,18.0,2.338,48.855,,,,,,,,
307,Parmentier - Hôpital Saint-Louis,24.0,2.37,48.871,,,,,,,,
308,Richard Wallace - Place du 8 Mai 1945,17.0,2.242,48.879,,,,,,,,
309,Faustin Hélie - Desbordes-Valmore,5.0,2.277,48.859,,,,,,,,
310,Quai aux Fleurs - Pont Saint-Louis,19.0,2.352,48.853,,,,,,,,
311,Porte de Vincennes,2.0,2.416,48.846,,,,,,,,
312,Flandre - Riquet,3.0,2.374,48.888,,,,,,,,
313,Place de la Porte de Châtillon,5.0,2.319,48.824,,,,,,,,
314,Montreuil - Gonnet,16.0,2.389,48.851,,,,,,,,
315,Dupleix - du Guesclin,39.0,2.297,48.851,,,,,,,,
316,Montgallet - Reuilly,7.0,2.39,48.844,,,,,,,,
317,Varenne,6.0,2.315,48.857,,,,,,,,
318,Place des Ternes.,5.0,2.298,48.878,,,,,,,,
319,Ancien Canal - Hélène Brion,3.0,2.419,48.895,,,,,,,,
320,Departement - Pajol,6.0,2.361,48.887,,,,,,,,
321,Boulets - Voltaire,16.0,2.389,48.852,,,,,,,,
322,Fragonard - Porte de Clichy,29.0,2.314,48.894,,,,,,,,
323,Lacuée - Lyon,10.0,2.37,48.849,,,,,,,,
324,Jardin d'Acclimatation,24.0,2.271,48.879,,,,,,,,
325,Gare Montparnasse - René Mouchotte,2.0,2.321,48.839,,,,,,,,
326,Charles de Gaulle - Jean Lolive,6.0,2.413,48.893,,,,,,,,
327,Paul Vaillant Couturier - Chaptal,9.0,2.278,48.893,,,,,,,,
328,Place de la Fraternité,8.0,2.423,48.857,,,,,,,,
329,Vincent Auriol - Louise Weiss,16.0,2.37,48.834,,,,,,,,
330,Gare de Laplace,12.0,2.335,48.809,,,,,,,,
331,Bayen - Pereire,5.0,2.292,48.882,,,,,,,,
332,Quai de la Loire - Jean Jaurès,2.0,2.371,48.883,,,,,,,,
333,Gare de Lyon - Roland Barthes,46.0,2.379,48.844,,,,,,,,
334,Route de Sèvres - Porte de Bagatelle,49.0,2.249,48.875,,,,,,,,
335,Commandant Rivière,6.0,2.31,48.873,,,,,,,,
336,Gare de Pont-Cardinet,9.0,2.314,48.887,,,,,,,,
337,Bordier - Félix Faure,26.0,2.383,48.904,,,,,,,,
338,Jussieu - Fossés Saint-Bernard,27.0,2.353,48.847,,,,,,,,
339,Charonne - Avron,3.0,2.398,48.852,,,,,,,,
340,Félix Faure - Sadi Carnot,5.0,2.379,48.908,,,,,,,,
341,Square Cambronne,46.0,2.303,48.848,,,,,,,,
342,Lemercier - Cardinet,4.0,2.317,48.89,,,,,,,,
343,18 juin 1940 - Buzenval,13.0,2.185,48.869,,,,,,,,
344,Porte de la Villette,2.0,2.386,48.898,,,,,,,,
345,Ouest - Château ,3.0,2.319,48.836,,,,,,,,
346,Place aux Étoiles,5.0,2.352,48.918,,,,,,,,
347,Flandrin - Henri Martin,5.0,2.272,48.864,,,,,,,,
348,Alexandre Dumas - Voltaire,17.0,2.389,48.853,,,,,,,,
349,Jean Colly - Tolbiac,5.0,2.371,48.828,,,,,,,,
350,Pirogues de Bercy - Libourne,17.0,2.386,48.832,,,,,,,,
351,Place Jean-Baptiste Clément,9.0,2.362,48.812,,,,,,,,
352,Verdun - Place Henri IV,12.0,2.228,48.871,,,,,,,,
353,Picpus - Louis Braille,26.0,2.401,48.84,,,,,,,,
354,Porte d'Auteuil,16.0,2.261,48.848,,,,,,,,
355,Sarrette - Général Leclerc,6.0,2.326,48.825,,,,,,,,
356,Dugommier,30.0,2.39,48.839,,,,,,,,
357,Réunion - Avron,7.0,2.404,48.853,,,,,,,,
358,Bastille - Biscornet,50.0,2.369,48.851,,,,,,,,
359,Square des Saint-Simoniens,3.0,2.397,48.87,,,,,,,,
360,Petit - Manin,5.0,2.394,48.887,,,,,,,,
361,Place des Marseillais,12.0,2.406,48.827,,,,,,,,
362,Charenton - Wattignies,31.0,2.392,48.837,,,,,,,,
363,Gare Rosny-Bois-Perrier,30.0,2.48,48.881,,,,,,,,
364,Chanzy - Sud-Est,21.0,2.196,48.889,,,,,,,,
365,Jussieu - Guy de la Brosse,36.0,2.356,48.846,,,,,,,,
366,Gabrielle Josserand - Edouard Vaillant,14.0,2.393,48.903,,,,,,,,
367,Square René Viviani - Montebello,21.0,2.348,48.852,,,,,,,,
368,Jean Lolive - Parc Stalingrad,8.0,2.409,48.892,,,,,,,,
369,Courcelles - Place des Ternes,4.0,2.299,48.878,,,,,,,,
370,Cambronne - Villa Croix Nivert,26.0,2.302,48.846,,,,,,,,
371,Victor Hugo - Magasins Généraux,6.0,2.368,48.903,,,,,,,,
372,Gare Saint-Lazare - Cour du Havre,1.0,2.327,48.876,,,,,,,,
373,Guichet - Jean Jaurès,28.0,2.302,48.905,,,,,,,,
374,Evariste Galois,9.0,2.413,48.873,,,,,,,,
375,Claude Bernard - Arbalète,14.0,2.348,48.84,,,,,,,,
376,Rapp - Place du Général Gouraud,24.0,2.3,48.858,,,,,,,,
377,Edgar Quinet - Gaité,1.0,2.325,48.841,,,,,,,,
378,Place Carnot,9.0,2.442,48.856,,,,,,,,
379,Gravelle - Route du Bac,7.0,2.418,48.824,,,,,,,,
380,René Boulanger - Lancry,20.0,2.36,48.869,,,,,,,,
381,Ceinture du Lac Inferieure - Saint-Cloud,15.0,2.262,48.862,,,,,,,,
382,Anatole France - Jean Lolive,5.0,2.425,48.895,,,,,,,,
383,Boyer-Barret - Raymond Losserand,7.0,2.317,48.833,,,,,,,,
384,Piat - Parc de Belleville,10.0,2.385,48.872,,,,,,,,
385,Lagny - Joffre,6.0,2.418,48.849,,,,,,,,
386,Parc Monceau,1.0,2.31,48.881,,,,,,,,
387,Porte d'Orléans,4.0,2.325,48.823,,,,,,,,
388,Place Falguière,12.0,2.31,48.836,,,,,,,,
389,Vignerons - Minimes,8.0,2.431,48.841,,,,,,,,
390,Emeriau - Place de Brazzaville,45.0,2.287,48.851,,,,,,,,
391,Ecole Militaire - Place Joffre,25.0,2.302,48.852,,,,,,,,
392,Gare d'Austerlitz - Quai Saint-Bernard,0.0,2.366,48.844,,,,,,,,
393,Sommerard - Saint-Jacques,29.0,2.345,48.85,,,,,,,,
394,Tardieu - Chappe,2.0,2.342,48.884,,,,,,,,
395,Petites Ecuries - Faubourg Poissonnière,5.0,2.348,48.874,,,,,,,,
396,Gare de Bercy,5.0,2.383,48.84,,,,,,,,
397,Pierre Ginier - Clichy,3.0,2.326,48.887,,,,,,,,
398,Batignolles - Place de Clichy,11.0,2.326,48.883,,,,,,,,
399,Francoeur - Marcadet,5.0,2.34,48.891,,,,,,,,
400,Henri Chevreau - Couronnes,8.0,2.389,48.87,,,,,,,,
401,Pascal - Claude Bernard,45.0,2.35,48.839,,,,,,,,
402,Place Valhubert,25.0,2.364,48.844,,,,,,,,
403,Lamennais - Washington ,1.0,2.303,48.874,,,,,,,,
404,Lauriston - Copernic,2.0,2.29,48.869,,,,,,,,
405,Pierre Grenier - Pont de Billancourt,10.0,2.249,48.826,,,,,,,,
406,Vasco de Gama,53.0,2.284,48.837,,,,,,,,
407,Bineau - Louise Michel,15.0,2.284,48.887,,,,,,,,
408,Professeur René Leriche - Général Leclerc ,40.0,2.308,48.908,,,,,,,,
409,Bara - Henri Farman,33.0,2.268,48.833,,,,,,,,
410,Carrefour Pleyel,13.0,2.344,48.92,,,,,,,,
411,Navier - Epinettes,6.0,2.323,48.896,,,,,,,,
412,Ledru-Rollin - Charonne,27.0,2.377,48.853,,,,,,,,
413,Parc de Belleville - Julien Lacroix,3.0,2.384,48.87,,,,,,,,
414,Batignolles - Abel Truchet,7.0,2.324,48.883,,,,,,,,
415,Gare de l'Est - Verdun,1.0,2.361,48.876,,,,,,,,
416,Charenton - Place du Col Bourgoin,20.0,2.383,48.845,,,,,,,,
417,Morice - Général Leclerc,18.0,2.313,48.902,,,,,,,,
418,Lucien Sampaix - Récollets,4.0,2.362,48.874,,,,,,,,
419,Place Jean Delay,5.0,2.354,48.823,,,,,,,,
420,Pont de Levallois-bécon ,13.0,2.279,48.898,,,,,,,,
421,Place Violet,23.0,2.291,48.845,,,,,,,,
422,Jonquoy - Didot,7.0,2.316,48.829,,,,,,,,
423,Place du Général de Gaulle,12.0,2.488,48.853,,,,,,,,
424,Quai Voltaire,28.0,2.331,48.859,,,,,,,,
425,Dunois - Clisson,19.0,2.367,48.832,,,,,,,,
426,Edouard Vaillant - Paul-Adolphe Souriau,6.0,2.248,48.835,,,,,,,,
427,Michelet - Assas,4.0,2.335,48.843,,,,,,,,
428,Porte Dorée,15.0,2.408,48.835,,,,,,,,
429,Félix Faure - Lourmel,47.0,2.282,48.839,,,,,,,,
430,Belleville - Porte des Lilas,2.0,2.405,48.877,,,,,,,,
431,Haxo - Surmelin,4.0,2.405,48.869,,,,,,,,
432,Gare de l'Est - Place du 11 Novembre 1918,1.0,2.359,48.876,,,,,,,,
433,Porte de Clignancourt.,1.0,2.344,48.897,,,,,,,,
434,Primo Levi - Frigos,31.0,2.38,48.831,,,,,,,,
435,Place Alphonse Deville,8.0,2.328,48.85,,,,,,,,
436,Hôtel de Ville d'Argenteuil,17.0,2.25,48.947,,,,,,,,
437,Mézières - Rennes ,29.0,2.33,48.85,,,,,,,,
438,Place Adolphe Cherioux - Vaugirard,25.0,2.301,48.84,,,,,,,,
439,Charles de Gaulle - Madrid,12.0,2.261,48.884,,,,,,,,
440,Tanger - Place du Maroc,5.0,2.369,48.886,,,,,,,,
441,Ménilmontant - Pelleport,2.0,2.399,48.871,,,,,,,,
442,Vincennes - Douy-Delcupe,9.0,2.436,48.855,,,,,,,,
443,Place du Cornillon - Stade de France,2.0,2.364,48.925,,,,,,,,
444,Belfort - Voltaire,17.0,2.383,48.856,,,,,,,,
445,Porte de Saint-Ouen - Henri Huchard,10.0,2.33,48.899,,,,,,,,
446,Place du Maréchal Juin - Péreire,1.0,2.298,48.885,,,,,,,,
447,Victoria - Place du Chatelet,15.0,2.347,48.858,,,,,,,,
448,Vinaigriers - Magenta,6.0,2.359,48.873,,,,,,,,
449,République - Danton,3.0,2.462,48.852,,,,,,,,
450,Colonel Monteil - Brune,2.0,2.309,48.827,,,,,,,,
451,Gare d'Asnières sur Seine,16.0,2.284,48.906,,,,,,,,
452,Verdun - Adrien Damalix,11.0,2.422,48.822,,,,,,,,
453,Milton - Manuel,5.0,2.341,48.878,,,,,,,,
454,Edouard Pailleron - Simon Bolivar ,3.0,2.375,48.88,,,,,,,,
455,Mac-Mahon - Brey,4.0,2.295,48.878,,,,,,,,
456,Eglise d'Auteuil,7.0,2.268,48.847,,,,,,,,
457,Lepic - Armée d'Orient,7.0,2.334,48.888,,,,,,,,
458,Jean Jaurès - Jean Baptiste Clément ,19.0,2.237,48.846,,,,,,,,
459,Château - Bineau,7.0,2.27,48.89,,,,,,,,
460,Courcelles - Pierre Demours,4.0,2.299,48.884,,,,,,,,
461,Mairie du 18ème,6.0,2.345,48.893,,,,,,,,
462,Bridaine - Lamandé,7.0,2.321,48.886,,,,,,,,
463,Porte de Ménilmontant,4.0,2.409,48.869,,,,,,,,
464,Laffitte - Italiens,11.0,2.337,48.872,,,,,,,,
465,Place Lafayette,44.0,2.264,48.83,,,,,,,,
466,Indre - Prairies,4.0,2.403,48.863,,,,,,,,
467,Université Paris Dauphine,0.0,2.275,48.871,,,,,,,,
468,Lourmel - Marie Skobtsov,21.0,2.287,48.845,,,,,,,,
469,Belleville - Télégraphe,2.0,2.4,48.876,,,,,,,,
470,Danton - Serpente,15.0,2.341,48.852,,,,,,,,
471,Cité des Sciences et de l'Industrie,3.0,2.385,48.897,,,,,,,,
472,Place de Verdun,36.0,2.474,48.82,,,,,,,,
473,Square des Epinettes,11.0,2.326,48.894,,,,,,,,
474,Les Planètes ,14.0,2.458,48.81,,,,,,,,
475,Chabrol - d'Hauteville,2.0,2.351,48.877,,,,,,,,
476,Square du Carrefour de l'Insurrection,9.0,2.291,48.821,,,,,,,,
477,Square Saint-Ambroise,12.0,2.376,48.861,,,,,,,,
478,Hameau Fleuri - Marché,18.0,2.241,48.831,,,,,,,,
479,Pajol - Riquet ,18.0,2.363,48.89,,,,,,,,
480,Lassus - Delouvain,3.0,2.389,48.876,,,,,,,,
481,Emile Blemont - Poteau,8.0,2.342,48.894,,,,,,,,
482,Jean Bleuzen - Square du 11 Novembre,1.0,2.297,48.823,,,,,,,,
483,Orteaux - Mouraud,6.0,2.409,48.856,,,,,,,,
484,François Ponsard - La Muette ,7.0,2.274,48.858,,,,,,,,
485,Provence - Chaussée d'Antin,12.0,2.333,48.874,,,,,,,,
486,Ledru-Rollin - Place du Père Chaillet,31.0,2.379,48.856,,,,,,,,
487,Assas - Vaugirard,15.0,2.329,48.848,,,,,,,,
488,Pelleport - Belgrand,7.0,2.404,48.865,,,,,,,,
489,Ordener - Poissonniers,8.0,2.351,48.891,,,,,,,,
490,Place Etienne Pernet,32.0,2.292,48.842,,,,,,,,
491,Mairie du 10ème,12.0,2.358,48.872,,,,,,,,
492,Porte d'Aubervilliers,26.0,2.369,48.899,,,,,,,,
493,Sadi Carnot - François Mitterrand ,8.0,2.424,48.875,,,,,,,,
494,Bellefond - Maubeuge,4.0,2.345,48.878,,,,,,,,
495,Théâtre - Lourmel,34.0,2.29,48.848,,,,,,,,
496,Aubervilliers - Curial,7.0,2.369,48.891,,,,,,,,
497,Champs-Elysees - Bassano,0.0,2.3,48.872,,,,,,,,
498,Balard - Montagne de la Fage,27.0,2.278,48.839,,,,,,,,
499,Place Pasdeloup,17.0,2.367,48.863,,,,,,,,
500,Méchain - Faubourg Saint-Jacques,2.0,2.338,48.836,,,,,,,,
501,Stade Auguste Delaune,13.0,2.435,48.809,,,,,,,,
502,Maison de Radio - France,27.0,2.278,48.851,,,,,,,,
503,Square Léon,3.0,2.353,48.887,,,,,,,,
504,Jean-Baptiste Pigalle - La Bruyere,2.0,2.334,48.879,,,,,,,,
505,Transvaal - Charles de Gaulle ,2.0,2.237,48.848,,,,,,,,
506,Belliard - Damrémont,17.0,2.338,48.897,,,,,,,,
507,Mozart - Jasmin,2.0,2.268,48.853,,,,,,,,
508,Boulets - Faubourg Saint-Antoine,16.0,2.392,48.849,,,,,,,,
509,Haies - Réunion,14.0,2.402,48.854,,,,,,,,
510,Maine - Antoine Bourdelle,1.0,2.32,48.843,,,,,,,,
511,Kléber - Gouverneur Général Eboué,17.0,2.272,48.827,,,,,,,,
512,Président Wilson - Jean Jaures,10.0,2.292,48.89,,,,,,,,
513,Pyrénées - Maraîchers,4.0,2.404,48.857,,,,,,,,
514,Beaujon - Wagram,5.0,2.296,48.875,,,,,,,,
515,Place Jacques Bonsergent,8.0,2.361,48.871,,,,,,,,
516,Naples - Rome,6.0,2.321,48.88,,,,,,,,
517,Place de Passy,0.0,2.278,48.858,,,,,,,,
518,Gare RER de Saint-Denis,15.0,2.347,48.936,,,,,,,,
519,Pont Neuf - Rivoli,6.0,2.344,48.86,,,,,,,,
520,Gare du Nord - Dunkerque,2.0,2.353,48.88,,,,,,,,
521,Lavandieres Sainte Opportune - Rivoli,10.0,2.347,48.859,,,,,,,,
522,Musée d'Orsay,42.0,2.326,48.86,,,,,,,,
523,Bassano -  Iéna,1.0,2.296,48.868,,,,,,,,
524,Clichy - Place Blanche,2.0,2.333,48.884,,,,,,,,
525,8 Mai 1945 - 10 Juillet 1940,20.0,2.398,48.785,,,,,,,,
526,Diderot - Pierre Bourdan,13.0,2.39,48.848,,,,,,,,
527,Lallier - Trudaine ,2.0,2.341,48.881,,,,,,,,
528,Gare du Nord - Saint-Vincent de Paul,1.0,2.352,48.881,,,,,,,,
529,Pereire - Place de Wagram,9.0,2.304,48.887,,,,,,,,
530,Traversière - Ledru-Rollin,17.0,2.376,48.851,,,,,,,,
531,Ménilmontant - Père Lachaise,6.0,2.387,48.863,,,,,,,,
532,Sabot - Rennes,20.0,2.332,48.853,,,,,,,,
533,Palais des Sports,1.0,2.286,48.833,,,,,,,,
534,Fontainebleau - Edmond Michelet,8.0,2.363,48.81,,,,,,,,
535,Hôpital Pitié Salpêtrière,9.0,2.36,48.838,,,,,,,,
536,Chernoviz - Raynouard,2.0,2.282,48.857,,,,,,,,
537,Eugène Oudiné - Dessous Des Berges,34.0,2.375,48.826,,,,,,,,
538,Mont Valérien - Michel Salles,2.0,2.215,48.856,,,,,,,,
539,Place du Moulin de Javel,45.0,2.272,48.84,,,,,,,,
540,Batignolles - Rome,1.0,2.32,48.882,,,,,,,,
541,Neuve Saint-Pierre - Beautreillis,11.0,2.364,48.854,,,,,,,,
542,Alfred Roll - Berthier,18.0,2.3,48.888,,,,,,,,
543,Pernety - Raymond Losserand,0.0,2.318,48.834,,,,,,,,
544,Gare Montparnasse - Vaugirard,4.0,2.32,48.842,,,,,,,,
545,Villersexel - Saint-Germain,8.0,2.324,48.858,,,,,,,,
546,Sénat - Condé,6.0,2.338,48.85,,,,,,,,
547,Granges aux Belles - Hôpital Saint-Louis,16.0,2.367,48.875,,,,,,,,
548,Parc de Choisy,7.0,2.359,48.828,,,,,,,,
549,Aqueduc - Villette,2.0,2.367,48.884,,,,,,,,
550,Belleville - Pyrénées,7.0,2.386,48.874,,,,,,,,
551,Calmette,4.0,2.425,48.881,,,,,,,,
552,Billancourt - Général Leclerc ,14.0,2.238,48.832,,,,,,,,
553,Manin - Simon Bolivar,6.0,2.379,48.876,,,,,,,,
554,Greneta - Sebastopol,15.0,2.352,48.865,,,,,,,,
555,Favart - Italiens,6.0,2.338,48.871,,,,,,,,
556,Parvis Corentin Celton,43.0,2.278,48.827,,,,,,,,
557,Parc André Citroën,54.0,2.278,48.841,,,,,,,,
558,François 1er - Montaigne,7.0,2.307,48.867,,,,,,,,
559,Roquépine - Malesherbes,9.0,2.32,48.873,,,,,,,,
560,Bois de Vincennes.,10.0,2.413,48.834,,,,,,,,
561,Surcouf - Université,39.0,2.309,48.861,,,,,,,,
562,Ney - Charles Hermite,16.0,2.365,48.899,,,,,,,,
563,Faubourg Poissonniere - Delta,4.0,2.35,48.883,,,,,,,,
564,Saint-Amand - Labrouste,13.0,2.309,48.834,,,,,,,,
565,Place du Maquis du Vercors,0.0,2.408,48.877,,,,,,,,
566,Jeanne Hornet - Girardot,2.0,2.428,48.874,,,,,,,,
567,Uzès - Montmartre,3.0,2.343,48.871,,,,,,,,
568,Duroc - Place de Breteuil,15.0,2.313,48.847,,,,,,,,
569,Vieille du Temple - Francs Bourgeois,20.0,2.358,48.858,,,,,,,,
570,Gare du Nord - Demarquay,1.0,2.358,48.881,,,,,,,,
571,Place François Mitterand,0.0,2.443,48.865,,,,,,,,
572,Hôtel de Ville de Champigny sur Marne,19.0,2.51,48.814,,,,,,,,
573,Place Pigalle,3.0,2.336,48.883,,,,,,,,
574,Bastille - Beaumarchais,17.0,2.369,48.854,,,,,,,,
575,Poissonniers - Nord,5.0,2.352,48.893,,,,,,,,
576,Marignan - Champs-Elysées,8.0,2.307,48.869,,,,,,,,
577,Reims - Porte d'Asnières,9.0,2.3,48.892,,,,,,,,
578,Saint-Jacques - Tombe Issoire,5.0,2.337,48.833,,,,,,,,
579,Hôtel de Ville - Pont-Marie,29.0,2.357,48.854,,,,,,,,
580,Bercy.,6.0,2.379,48.84,,,,,,,,
581,Centenaire - Sorins,4.0,2.427,48.859,,,,,,,,
582,Saint-Blaise - Mouraud,2.0,2.409,48.857,,,,,,,,
583,Romain Rolland,3.0,2.323,48.82,,,,,,,,
584,Damrémont - Caulaincourt,4.0,2.333,48.887,,,,,,,,
585,Parmentier - Fontaine au Roi,22.0,2.373,48.868,,,,,,,,
586,Square Desnouettes,5.0,2.284,48.835,,,,,,,,
587,Brochant - Square des Batignolles ,8.0,2.317,48.888,,,,,,,,
588,Hôtel de Ville de Levallois Perret,15.0,2.289,48.893,,,,,,,,
589,Mairie de Clichy,44.0,2.306,48.904,,,,,,,,
590,Square Raymond Souplex,8.0,2.335,48.892,,,,,,,,
591,Convention - Saint-Charles,17.0,2.283,48.843,,,,,,,,
592,Keller - La Roquette,28.0,2.375,48.856,,,,,,,,
593,Pont de Lodi - Dauphine,9.0,2.34,48.855,,,,,,,,
594,Thérèse - Opéra,19.0,2.334,48.866,,,,,,,,
595,Place de Finlande,13.0,2.311,48.862,,,,,,,,
596,Ney - Porte de Montmartre,9.0,2.336,48.898,,,,,,,,
597,Rougemont - Poissonnière,6.0,2.346,48.872,,,,,,,,
598,Lagny - Auguste Blanqui,4.0,2.422,48.849,,,,,,,,
599,Mairie du 15ème,15.0,2.299,48.842,,,,,,,,
600,Place des Larris,6.0,2.478,48.857,,,,,,,,
601,Manin - Crimée,13.0,2.386,48.883,,,,,,,,
602,Nationale - Marcel Duchamp,2.0,2.368,48.825,,,,,,,,
603,Franciade - Gabriel Péri,18.0,2.356,48.933,,,,,,,,
604,Charonne - Philippe-Auguste,5.0,2.391,48.856,,,,,,,,
605,Charles Delescluze,36.0,2.381,48.852,,,,,,,,
606,Paul Doumer - La Tour,6.0,2.281,48.86,,,,,,,,
607,Poissy - Saint-Germain,23.0,2.353,48.85,,,,,,,,
608,Vistule - Choisy,11.0,2.362,48.824,,,,,,,,
609,Gambetta - Michelet,11.0,2.43,48.853,,,,,,,,
610,Les Juilliottes,19.0,2.444,48.804,,,,,,,,
611,République - Henri Barbusse,22.0,2.389,48.907,,,,,,,,
612,Jeûneurs - Mulhouse,20.0,2.347,48.869,,,,,,,,
613,Danielle Casanova - Place Vendôme,20.0,2.33,48.868,,,,,,,,
614,Versailles - Claude Terrasse,34.0,2.264,48.84,,,,,,,,
615,Claude Vellefaux - Sambre et Meuse,13.0,2.37,48.875,,,,,,,,
616,Faidherbe - Dahomey,22.0,2.384,48.851,,,,,,,,
617,Fernand Braudel - Vincent Auriol ,31.0,2.372,48.836,,,,,,,,
618,Porte Saint-Martin,19.0,2.356,48.869,,,,,,,,
619,Gare de l'Est - Chateau Landon,4.0,2.362,48.879,,,,,,,,
620,Place Saint-Ferdinand,7.0,2.289,48.878,,,,,,,,
621,Le Vau - Maurice Bertaux,3.0,2.411,48.868,,,,,,,,
622,Place du Canada,13.0,2.31,48.865,,,,,,,,
623,Arsène Houssaye - Champs-Elysées,5.0,2.298,48.873,,,,,,,,
624,Daunou - Louis le Grand,13.0,2.333,48.869,,,,,,,,
625,Bleue - Trévise,10.0,2.347,48.876,,,,,,,,
626,Parc de Sceaux - Centre-Ville,25.0,2.296,48.777,,,,,,,,
627,Sorbonne - Ecoles,38.0,2.343,48.85,,,,,,,,
628,Place Mireille Havet,39.0,2.384,48.851,,,,,,,,
629,Pierre Sarrazin - Saint-Michel,33.0,2.342,48.851,,,,,,,,
630,Mornay - Sully,9.0,2.364,48.85,,,,,,,,
631,Bachaumont - Montmartre,25.0,2.345,48.866,,,,,,,,
632,Place Tony de Graaff,21.0,2.246,48.818,,,,,,,,
633,François 1er - Lincoln,1.0,2.302,48.87,,,,,,,,
634,Blaise-Desgoffe - Vaugirard,15.0,2.324,48.846,,,,,,,,
635,Ferrus - Saint-Jacques,6.0,2.341,48.831,,,,,,,,
636,Lamartine - Faubourg Montmartre,4.0,2.34,48.877,,,,,,,,
637,Mairie du 19ème,3.0,2.381,48.883,,,,,,,,
638,Odessa - Départ,0.0,2.324,48.843,,,,,,,,
639,Quai Marcel Boyer - Victor Hugo,21.0,2.392,48.823,,,,,,,,
640,Jardin Marguerite Long,5.0,2.284,48.882,,,,,,,,
641,Place de l'Eglise - Pantin,2.0,2.412,48.893,,,,,,,,
642,Melun - Jean Jaurès,0.0,2.376,48.884,,,,,,,,
643,Suffren - Pérignon,26.0,2.307,48.847,,,,,,,,
644,Jean Jaurès - Reine,28.0,2.24,48.84,,,,,,,,
645,Argenson - Château,1.0,2.264,48.889,,,,,,,,
646,Square du Bataclan,14.0,2.371,48.863,,,,,,,,
647,Butte aux Cailles - Esperance,9.0,2.349,48.828,,,,,,,,
648,Louis Ganne - Davout,8.0,2.41,48.863,,,,,,,,
649,Roquette - Folie Regnault,11.0,2.387,48.859,,,,,,,,
650,Vignes - Boulainvilliers,5.0,2.275,48.856,,,,,,,,
651,Tremblay - Lac des Minimes,25.0,2.455,48.834,,,,,,,,
652,Terroirs de France - Lheureux,22.0,2.389,48.832,,,,,,,,
653,Place Marcel Sembat,41.0,2.244,48.833,,,,,,,,
654,Censier - Jardin des Plantes,23.0,2.355,48.841,,,,,,,,
655,Brochant - Clichy,17.0,2.32,48.89,,,,,,,,
656,René Binet - Porte de Montmartre,4.0,2.337,48.899,,,,,,,,
657,Charles de Gaulle - Plateau de Vanves,6.0,2.299,48.822,,,,,,,,
658,René Coty - Parc Montsouris,9.0,2.336,48.825,,,,,,,,
659,François Truffaut - Saint Emilion,38.0,2.387,48.834,,,,,,,,
660,Lac Daumesnil - Saint-Maurice,14.0,2.418,48.828,,,,,,,,
661,Montreuil - Voltaire,15.0,2.393,48.851,,,,,,,,
662,Léon - Doudeauville,7.0,2.354,48.888,,,,,,,,
663,Moulin de la Pointe,3.0,2.356,48.821,,,,,,,,
664,Place du 8 mai 1945,22.0,2.357,48.939,,,,,,,,
665,Schoelcher - Raspail,11.0,2.331,48.837,,,,,,,,
666,Gare de Clichy-Levallois ,15.0,2.298,48.897,,,,,,,,
667,Daumesnil - Picpus,24.0,2.402,48.837,,,,,,,,
668,Place Charles Vallin,21.0,2.303,48.836,,,,,,,,
669,Le Corbusier - Jean Jaurès,23.0,2.241,48.838,,,,,,,,
670,Beaumarchais - Pas de la Mule,17.0,2.368,48.856,,,,,,,,
671,Place Centrale,2.0,2.228,48.787,,,,,,,,
672,Mairie du 9ème,5.0,2.341,48.873,,,,,,,,
673,Jean Moulin - Paul Doumer,6.0,2.455,48.862,,,,,,,,
674,Boutroux - Porte de Vitry,41.0,2.378,48.823,,,,,,,,
675,Jules Guesde - Alsace,6.0,2.295,48.891,,,,,,,,
676,Véron - Lepic,5.0,2.335,48.885,,,,,,,,
677,Commandant l'Herminier - Gallieni,4.0,2.416,48.847,,,,,,,,
678,Pont De Charenton,17.0,2.42,48.818,,,,,,,,
679,Pierre Brossolette - Adolphe Pinard,7.0,2.313,48.822,,,,,,,,
680,Station Paris Basketball - Stade Georges Carpentier,8.0,2.367,48.82,,,,,,,,
681,Gare de Nanterre Ville,32.0,2.196,48.895,,,,,,,,
682,Senard - Charles Blum,4.0,2.221,48.857,,,,,,,,
683,Charles de Gaulle - Orléans ,15.0,2.272,48.881,,,,,,,,
684,Saint-Fargeau - Mortier,11.0,2.408,48.873,,,,,,,,
685,Gergovie - Vercingétorix,2.0,2.313,48.835,,,,,,,,
686,Londres - Amsterdam,0.0,2.326,48.878,,,,,,,,
687,Choisy - Tolbiac,3.0,2.36,48.826,,,,,,,,
688,Mahatma Gandhi,7.0,2.264,48.876,,,,,,,,
689,Pyramide - Parc Floral,32.0,2.44,48.837,,,,,,,,
690,Jules Guesde - Laennec,2.0,2.501,48.876,,,,,,,,
691,Demi-Lune - Aristide Briand,10.0,2.456,48.876,,,,,,,,
692,Bois de Vincennes - Porte Jaune,16.0,2.461,48.839,,,,,,,,
693,Guy Môquet - Saint-Ouen,12.0,2.327,48.893,,,,,,,,
694,Pré Saint-Gervais - Lilas,7.0,2.396,48.878,,,,,,,,
695,Choron - Martyrs,7.0,2.34,48.878,,,,,,,,
696,Sambre et Meuse - Villette,12.0,2.374,48.874,,,,,,,,
697,Place du Président Salvador Allende,5.0,2.401,48.897,,,,,,,,
698,Square Edmond Pépin,13.0,2.403,48.884,,,,,,,,
699,Clapeyron - Moscou,11.0,2.325,48.881,,,,,,,,
700,Boussingault - Tolbiac,15.0,2.342,48.826,,,,,,,,
701,Paul Klee - Place Augusta Holmes,38.0,2.37,48.839,,,,,,,,
702,Jacquard - Ternaux ,22.0,2.373,48.865,,,,,,,,
703,Alexander Fleming - Belvédère,1.0,2.403,48.882,,,,,,,,
704,Honoré d'Estienne d'Ovres - Grilles,6.0,2.406,48.891,,,,,,,,
705,Eylau - Trocadéro,4.0,2.286,48.863,,,,,,,,
706,Santé - Arago,3.0,2.342,48.835,,,,,,,,
707,Athènes - Clichy,0.0,2.33,48.878,,,,,,,,
708,Paul Barruel - Vaugirard,19.0,2.304,48.84,,,,,,,,
709,Longchamp - Place d'Iéna,11.0,2.293,48.865,,,,,,,,
710,Parc Suzanne Lenglen,33.0,2.277,48.833,,,,,,,,
711,Louis Blanc - Jemmapes,2.0,2.368,48.879,,,,,,,,
712,Averroès - Aimé Césaire,18.0,2.413,48.914,,,,,,,,
713,Place de la Montagne du Goulet,7.0,2.277,48.844,,,,,,,,
714,Gare de Lyon - Van Gogh,28.0,2.37,48.844,,,,,,,,
715,Charles Lecocq - Lecourbe,21.0,2.295,48.84,,,,,,,,
716,Quai de Valmy,2.0,2.368,48.881,,,,,,,,
717,Place d'Italie - Vincent Auriol,7.0,2.357,48.831,,,,,,,,
718,Square de la rue Pixérécourt,7.0,2.396,48.874,,,,,,,,
719,Place du Front Populaire - George Sand,17.0,2.365,48.907,,,,,,,,
720,Bastille - Quai de la Rapée,19.0,2.367,48.847,,,,,,,,
721,Auguste Blanqui - Glacière,6.0,2.344,48.831,,,,,,,,
722,Mazagran - Pierre de Coubertin,6.0,2.344,48.816,,,,,,,,
723,Place Fernand Forest,21.0,2.282,48.849,,,,,,,,
724,Wurtz - Tolbiac,24.0,2.345,48.826,,,,,,,,
725,Hôtel de ville de Fontenay-sous-Bois,3.0,2.475,48.849,,,,,,,,
726,Pierre Demours - Laugier,13.0,2.295,48.881,,,,,,,,
727,Ivry - Simone Weil,7.0,2.366,48.823,,,,,,,,
728,Metz - Faubourg Saint-Denis,41.0,2.354,48.871,,,,,,,,
729,Botzaris - Crimée,1.0,2.389,48.88,,,,,,,,
730,Saint-Didier - Raymond Poincaré,2.0,2.286,48.866,,,,,,,,
731,Pelée - Alphonse Baudin,27.0,2.371,48.86,,,,,,,,
732,Traktir - Foch,2.0,2.292,48.873,,,,,,,,
733,Saint-Lazare - Place d'Estienne d'Orves,4.0,2.333,48.877,,,,,,,,
734,Place Jules Ferry,16.0,2.326,48.812,,,,,,,,
735,Censier - Santeuil,66.0,2.354,48.841,,,,,,,,
736,Cimetière d'Issy-les-Moulineaux,16.0,2.261,48.818,,,,,,,,
737,Mairie de Neuilly sur Seine,13.0,2.268,48.885,,,,,,,,
738,Pierre Levée - Fontaine Timbaud,14.0,2.371,48.866,,,,,,,,
739,Gare Montparnasse - Edgar Quinet,1.0,2.323,48.841,,,,,,,,
740,Joseph Sansboeuf - Saint Lazare,4.0,2.323,48.875,,,,,,,,
741,Cours de l'Ile Seguin - Parc Billancourt,12.0,2.234,48.827,,,,,,,,
742,Marcel Yol - Jullien,14.0,2.287,48.825,,,,,,,,
743,Marc Sangnier - Division Leclerc,23.0,2.33,48.786,,,,,,,,
744,Convention - Vaugirard,20.0,2.296,48.838,,,,,,,,
745,Résistance - Hoche,4.0,2.436,48.864,,,,,,,,
746,Paul Vaillant-Couturier - Gare RER,24.0,2.402,48.801,,,,,,,,
747,Raffet - Montmorency,12.0,2.263,48.853,,,,,,,,
748,Commerce - Letellier,33.0,2.297,48.848,,,,,,,,
749,Victor Cresson - Telles de la Poterie,29.0,2.269,48.823,,,,,,,,
750,Carnot - Général Lanrezac,0.0,2.294,48.875,,,,,,,,
751,Fessart - Château,15.0,2.24,48.842,,,,,,,,
752,Jean-Pierre Timbaud - Vaucouleurs,28.0,2.378,48.868,,,,,,,,
753,Bruneseau - Quai d'Ivry,36.0,2.389,48.825,,,,,,,,
754,Hôtel de Ville de Fontenay-aux-Roses,5.0,2.287,48.791,,,,,,,,
755,Bercy - Villot,13.0,2.377,48.842,,,,,,,,
756,Petites Ecuries - Faubourg Saint-Denis,21.0,2.354,48.873,,,,,,,,
757,Brancion - Lefebvre,1.0,2.301,48.829,,,,,,,,
758,Malesherbes - Place de la Madeleine,51.0,2.323,48.87,,,,,,,,
759,Temple - Charlot,34.0,2.365,48.866,,,,,,,,
760,Docteurs Déjérine - Pte de Montreuil,0.0,2.412,48.854,,,,,,,,
761,Cimetière de Boulogne-Billancourt,12.0,2.252,48.831,,,,,,,,
762,Pontoise - La Tournelle,18.0,2.352,48.85,,,,,,,,
763,Vanne - Général de Gaulle,7.0,2.328,48.815,,,,,,,,
764,Charles de Gaulle - Beauté,10.0,2.48,48.836,,,,,,,,
765,Malakoff - Place de la Porte Maillot,0.0,2.283,48.877,,,,,,,,
766,Ranelagh - Maison de la Radio,19.0,2.28,48.853,,,,,,,,
767,Gare SNCF Vanves-Malakoff,3.0,2.292,48.819,,,,,,,,
768,Vanne - Saussaies,4.0,2.339,48.786,,,,,,,,
769,André Maurois - Joseph et Marie Hackin,13.0,2.279,48.878,,,,,,,,
770,Pierre Lefaucheux - Traversière,14.0,2.242,48.824,,,,,,,,
771,Vitruve - Davout,3.0,2.409,48.861,,,,,,,,
772,Place de l'Insurrection d'Août 1944 ,25.0,2.398,48.815,,,,,,,,
773,Buzenval - Avron,3.0,2.402,48.852,,,,,,,,
774,Porte d'Italie,0.0,2.36,48.817,,,,,,,,
775,Westermeyer - Paul Vaillant-Couturier,24.0,2.397,48.819,,,,,,,,
776,Cauchy - Cévennes,46.0,2.275,48.843,,,,,,,,
777,Amaury Duval - Gabriel Péri,9.0,2.324,48.817,,,,,,,,
778,Caulaincourt - Place Constantin Pecqueur,1.0,2.338,48.89,,,,,,,,
779,Charles de Gaulle - Graviers,0.0,2.265,48.883,,,,,,,,
780,Paul Signac - Aristide Briand,12.0,2.45,48.87,,,,,,,,
781,Hôpital - Campo-Formio,5.0,2.358,48.835,,,,,,,,
782,Jean Calvin - Tournefort,6.0,2.348,48.842,,,,,,,,
783,Place de Barcelone - Mirabeau,27.0,2.274,48.848,,,,,,,,
784,Charles Gide - Fort de Bicêtre ,4.0,2.354,48.807,,,,,,,,
785,Jardin de l'Hospice Debrousse,4.0,2.406,48.861,,,,,,,,
786,Place de la Porte de Passy,12.0,2.264,48.857,,,,,,,,
787,Batignolles - Beudant,6.0,2.32,48.882,,,,,,,,
788,Daumesnil - Hébrard,36.0,2.385,48.843,,,,,,,,
789,Stade de France,5.0,2.362,48.919,,,,,,,,
790,Place de Lévis,7.0,2.313,48.884,,,,,,,,
791,Damrémont - Ordener,11.0,2.336,48.893,,,,,,,,
792,Arcole - Notre-Dame,26.0,2.349,48.854,,,,,,,,
793,La Motte-Picquet - Grenelle,28.0,2.299,48.849,,,,,,,,
794,Président Wilson - Baudin,10.0,2.285,48.898,,,,,,,,
795,Lobau - Hôtel de Ville,44.0,2.353,48.856,,,,,,,,
796,Colmar - Victor Hugo,24.0,2.174,48.887,,,,,,,,
797,Charonne - Pierre Bayle,2.0,2.39,48.858,,,,,,,,
798,Jourdan - Monticelli,6.0,2.329,48.822,,,,,,,,
799,Porte d'Asnières,8.0,2.304,48.89,,,,,,,,
800,Gaston Tessier - Rosa Parks RER,5.0,2.374,48.896,,,,,,,,
801,Camille Groult - Guy Môquet,12.0,2.398,48.787,,,,,,,,
802,Place de l'Europe - Quai de Bercy,12.0,2.395,48.825,,,,,,,,
803,Marché aux fleurs,11.0,2.347,48.855,,,,,,,,
804,Assas - Luxembourg,8.0,2.333,48.844,,,,,,,,
805,Pergolèse - Malakoff,6.0,2.284,48.875,,,,,,,,
806,Raspail - Albert Schweitzer,19.0,2.344,48.81,,,,,,,,
807,Jean Jaurès - Ouvrières Pivéreuses,17.0,2.4,48.91,,,,,,,,
808,Javel - André Citroën,41.0,2.279,48.846,,,,,,,,
809,Brillat-Savarin - Küss,18.0,2.35,48.822,,,,,,,,
810,Jacques Kellner - Saint-Ouen,23.0,2.328,48.896,,,,,,,,
811,Gare de Lyon - Chalon,1.0,2.374,48.846,,,,,,,,
812,Estienne d'Orves - Henri Ginoux,10.0,2.321,48.815,,,,,,,,
813,Benjamin Delessert - Jean Lolive,3.0,2.418,48.894,,,,,,,,
814,Paris - Laitières,3.0,2.421,48.846,,,,,,,,
815,Louis Pasteur - Albert Petit,8.0,2.317,48.796,,,,,,,,
816,Bobillot - Paulin Mery,3.0,2.354,48.83,,,,,,,,
817,Louis Rolland - République,2.0,2.319,48.817,,,,,,,,
818,Emeriau - Beaugrenelle,55.0,2.284,48.848,,,,,,,,
819,Faubourg Poissonnière - Dunkerque,2.0,2.35,48.881,,,,,,,,
820,Jean Moulin - Place Victor et Hélène Basch,3.0,2.326,48.828,,,,,,,,
821,Victor Hugo - La Pompe,4.0,2.281,48.868,,,,,,,,
822,Place Mongolfier,23.0,2.459,48.815,,,,,,,,
823,Gare RER - Malleret-Joinville,16.0,2.425,48.803,,,,,,,,
824,Place de la Gare,39.0,2.428,48.803,,,,,,,,
825,Paris - Désiré Préaux,7.0,2.432,48.857,,,,,,,,
826,Italie - Jardin Joan Miro,2.0,2.359,48.82,,,,,,,,
827,Monceau - Malesherbes ,3.0,2.315,48.88,,,,,,,,
828,Gare de la Garenne-Colombes,4.0,2.239,48.91,,,,,,,,
829,Mairie de quartier du Plateau - Mont-Valérien,13.0,2.207,48.88,,,,,,,,
830,Paul Vaillant-Couturier - Victor Hugo,27.0,2.294,48.898,,,,,,,,
831,La Jarry - Place Diderot,13.0,2.452,48.85,,,,,,,,
832,Paul Doumer - Stalingrad,17.0,2.337,48.807,,,,,,,,
833,Berthier - Place Stuart Merril,18.0,2.293,48.886,,,,,,,,
834,Quai de l'Oise - Aisne,17.0,2.383,48.891,,,,,,,,
835,Goutte d'or - Barbès,7.0,2.35,48.885,,,,,,,,
836,Charonne - Bureau,10.0,2.396,48.854,,,,,,,,
837,Square Louise Michel,4.0,2.344,48.885,,,,,,,,
838,Mairie de Clamart,6.0,2.262,48.801,,,,,,,,
839,Rond-Point de la Chapelle,0.0,2.36,48.895,,,,,,,,
840,Vaugirard - Pasteur,1.0,2.315,48.84,,,,,,,,
841,Place Jeanne d'Arc,14.0,2.369,48.83,,,,,,,,
842,Douai - Pierre Fontaine,3.0,2.333,48.882,,,,,,,,
843,Bessières - Porte de Clichy,7.0,2.318,48.896,,,,,,,,
844,Portugais - Kléber,1.0,2.294,48.871,,,,,,,,
845,Maréchal Joffre - Verdun,1.0,2.47,48.854,,,,,,,,
846,Place Edmond Michelet,2.0,2.35,48.86,,,,,,,,
847,Emile Zola - Fondary,25.0,2.295,48.847,,,,,,,,
848,Taitbout - La Fayette,9.0,2.335,48.873,,,,,,,,
849,Charles Tillon - Cimetière Communal,16.0,2.394,48.918,,,,,,,,
850,Saint-Mandé - Fabre d'Eglantine,15.0,2.397,48.845,,,,,,,,
851,Quai du Président Roosevelt - Pont Aval,10.0,2.266,48.834,,,,,,,,
852,Delizy - Louis Nadot,11.0,2.409,48.896,,,,,,,,
853,Halles - Bourdonnais,8.0,2.346,48.86,,,,,,,,
854,Île de la Jatte,11.0,2.267,48.894,,,,,,,,
855,Centre Georges Pompidou,4.0,2.353,48.861,,,,,,,,
856,Place Saint-Just,13.0,2.39,48.79,,,,,,,,
857,Rochechouart - Martyrs,4.0,2.341,48.882,,,,,,,,
858,La Motte-Picquet - La Tour Maubourg,20.0,2.309,48.857,,,,,,,,
859,Placette Grégoire Collas,16.0,2.249,48.943,,,,,,,,
860,Gérando - Rochechouart,1.0,2.346,48.883,,,,,,,,
861,Candale - Mehul,8.0,2.414,48.889,,,,,,,,
862,Porte des Lilas - Faidherbe,23.0,2.412,48.879,,,,,,,,
863,Suffren - Champ de Mars,22.0,2.295,48.855,,,,,,,,
864,Balzac - Olympes de Gouges,15.0,2.401,48.779,,,,,,,,
865,Square Bela Bartok,14.0,2.285,48.851,,,,,,,,
866,Fort d'Aubervilliers,10.0,2.404,48.915,,,,,,,,
867,Gare du Nord - Faubourg Saint-Denis,1.0,2.357,48.88,,,,,,,,
868,Saint-Germain - Ciseaux,6.0,2.334,48.853,,,,,,,,
869,Crozatier - Faubourg Saint-Antoine,34.0,2.379,48.85,,,,,,,,
870,Place Nelson Mandela,4.0,2.218,48.898,,,,,,,,
871,Hoche - Tilsitt,4.0,2.297,48.875,,,,,,,,
872,Londres - Place d'Estienne d'Orves,3.0,2.331,48.877,,,,,,,,
873,Place Ginette Hamelin,29.0,2.382,48.838,,,,,,,,
874,Pont de Suresnes,0.0,2.226,48.867,,,,,,,,
875,Esplanade du Foncet - Camille Desmoulins,12.0,2.261,48.827,,,,,,,,
876,Auguste Blanqui - Corvisart,5.0,2.35,48.83,,,,,,,,
877,Dunkerque - Trudaine,4.0,2.346,48.882,,,,,,,,
878,Clichy - Douai,0.0,2.329,48.884,,,,,,,,
879,Chemin de Bretagne,19.0,2.259,48.825,,,,,,,,
880,Joseph Dijon - Ornano,10.0,2.348,48.894,,,,,,,,
881,Gare du Stade,7.0,2.26,48.931,,,,,,,,
882,Square Denise Buisson,8.0,2.426,48.856,,,,,,,,
883,Glacière - Soeur Catherine Marie,6.0,2.344,48.83,,,,,,,,
884,Place Monge,11.0,2.352,48.843,,,,,,,,
885,Jourdan - Stade Charléty,14.0,2.343,48.819,,,,,,,,
886,Maurice d'Ocagne - General Maudhuy,4.0,2.316,48.824,,,,,,,,
887,Vivienne - Montmartre,5.0,2.341,48.871,,,,,,,,
888,Marché Saint-Quentin,3.0,2.355,48.877,,,,,,,,
889,Geoffroy - Marie,10.0,2.345,48.874,,,,,,,,
890,Toffier Decaux - Cartier Bresson,2.0,2.402,48.902,,,,,,,,
891,Place de Rungis,23.0,2.347,48.822,,,,,,,,
892,Vivaldi - Antoine-Julien Hénard,6.0,2.39,48.842,,,,,,,,
893,Godot de Mauroy - Madeleine,19.0,2.326,48.87,,,,,,,,
894,Madagascar - Meuniers,16.0,2.397,48.835,,,,,,,,
895,Abbé Groult - Convention,7.0,2.302,48.836,,,,,,,,
896,Saint-Denis - Rivoli,63.0,2.348,48.859,,,,,,,,
897,Buffon - Jardin des Plantes,24.0,2.362,48.843,,,,,,,,
898,Louis Xavier de Ricard - Ancienne Mairie,6.0,2.472,48.846,,,,,,,,
899,Lebrun - Colonel Fabien ,17.0,2.381,48.783,,,,,,,,
900,Saint-Antoine Sévigné,18.0,2.361,48.855,,,,,,,,
901,Place Joffre - Frédéric le Play,31.0,2.304,48.854,,,,,,,,
902,Square Etienne Jarousse,13.0,2.293,48.825,,,,,,,,
903,Rottembourg - Général Michel Bizot,17.0,2.404,48.838,,,,,,,,
904,Sebastopol - Rambuteau,12.0,2.35,48.862,,,,,,,,
905,Cloître Saint-Merri - Renard,20.0,2.352,48.859,,,,,,,,
906,Gare d'Argenteuil,28.0,2.257,48.947,,,,,,,,
907,Mairie du 8ème ,3.0,2.318,48.878,,,,,,,,
908,Jules Guesdes - Général de Gaulle,9.0,2.279,48.819,,,,,,,,
909,Bibliothèque Nationale - Richelieu,13.0,2.338,48.868,,,,,,,,
910,Marché Saint-Germain,15.0,2.336,48.852,,,,,,,,
911,Cherche-Midi - Hôpital Necker,12.0,2.318,48.845,,,,,,,,
912,Charenton - Prague,12.0,2.376,48.848,,,,,,,,
913,Place Aimé Césaire,3.0,2.243,48.783,,,,,,,,
914,Bourg l'Abbé - Saint-Martin,25.0,2.352,48.864,,,,,,,,
915,Hôpital Necker,15.0,2.313,48.846,,,,,,,,
916,Condorcet - Turgot,14.0,2.345,48.88,,,,,,,,
917,Dareau - Broussais,7.0,2.336,48.831,,,,,,,,
918,Jean Monnet - Iles,30.0,2.25,48.823,,,,,,,,
919,Parc Eli Lotar,9.0,2.373,48.918,,,,,,,,
920,Villiers - Batignolles,6.0,2.317,48.881,,,,,,,,
921,Stalingrad - Rigollots,11.0,2.456,48.85,,,,,,,,
922,Place Charles Michels,35.0,2.285,48.846,,,,,,,,
923,Croix Nivert - Square Saint-Lambert,46.0,2.295,48.843,,,,,,,,
924,Mairie du 14ème,10.0,2.325,48.833,,,,,,,,
925,Benoît Frachon - République,5.0,2.416,48.852,,,,,,,,
926,Dutot - Place Alleray,16.0,2.307,48.837,,,,,,,,
927,Leredde - Tolbiac,33.0,2.374,48.829,,,,,,,,
928,Jean Jaurès - Jules Jacquemin,8.0,2.408,48.884,,,,,,,,
929,Marne - Charles de Gaulle,26.0,2.412,48.815,,,,,,,,
930,Saint-Benoît - Jacob,11.0,2.333,48.855,,,,,,,,
931,Jardins d'Eole,5.0,2.367,48.887,,,,,,,,
932,Didot - Place de Moro-Giafferi,7.0,2.322,48.834,,,,,,,,
933,Davout - Volga,12.0,2.411,48.853,,,,,,,,
934,Porte de la Muette,5.0,2.269,48.863,,,,,,,,
935,Landy - Heurtault,12.0,2.376,48.915,,,,,,,,
936,Paradis - Hauteville,12.0,2.352,48.875,,,,,,,,
937,Bruant - Vincent Auriol,8.0,2.367,48.835,,,,,,,,
938,Place des Droits de l'Enfant,8.0,2.332,48.827,,,,,,,,
939,Richard Lenoir - Place de la Bastille,36.0,2.37,48.854,,,,,,,,
940,Bréguet - Sabin,27.0,2.371,48.857,,,,,,,,
941,Toqueville - Cardinet,9.0,2.311,48.885,,,,,,,,
942,Richard Lenoir - Voltaire,20.0,2.373,48.862,,,,,,,,
943,Paul Bodin - Clichy,4.0,2.317,48.892,,,,,,,,
944,Raymond Poincaré - Place Victor Hugo,1.0,2.285,48.87,,,,,,,,
945,Hôtel de Ville de Sèvres,25.0,2.213,48.824,,,,,,,,
946,Place de la Madeleine - Royale,11.0,2.324,48.869,,,,,,,,
947,Porte de Bagnolet,2.0,2.408,48.865,,,,,,,,
948,Ruisseau - Ordener,16.0,2.34,48.893,,,,,,,,
949,Ecoles - Carmes,24.0,2.347,48.849,,,,,,,,
950,Plantes - Moulin Vert,7.0,2.323,48.83,,,,,,,,
951,Crevaux - Bugeaud,4.0,2.281,48.871,,,,,,,,
952,Artois - Berri,4.0,2.306,48.874,,,,,,,,
953,Jules Vallès - Charonne,15.0,2.385,48.854,,,,,,,,
954,Porte Molitor,14.0,2.257,48.845,,,,,,,,
955,Charles Frérot - Albert Guilpin,26.0,2.351,48.816,,,,,,,,
956,Cadix - Hameau,10.0,2.29,48.834,,,,,,,,
957,Reuilly - Place Felix Eboue,13.0,2.395,48.84,,,,,,,,
958,Gare RER les Grésillons,21.0,2.315,48.92,,,,,,,,
959,Alfred de Vigny - Place du Général Brocard,3.0,2.305,48.878,,,,,,,,
960,Cambon - Rivoli,20.0,2.325,48.866,,,,,,,,
961,Jean Mermoz - Champs-Elysées,19.0,2.311,48.87,,,,,,,,
962,Place de la Nation - Picpus,4.0,2.4,48.847,,,,,,,,
963,Poissonniers - Championnet,8.0,2.353,48.895,,,,,,,,
964,Flandrin - Longchamp,13.0,2.274,48.869,,,,,,,,
965,Grande Truanderie - Saint-Denis,20.0,2.35,48.863,,,,,,,,
966,Square Claude Bernard,2.0,2.375,48.899,,,,,,,,
967,Chevreuse - Montparnasse,3.0,2.332,48.842,,,,,,,,
968,Henri Ravera - Gabriel Péri,13.0,2.302,48.797,,,,,,,,
969,Perle - Vieille du Temple,36.0,2.361,48.86,,,,,,,,
970,Sèvres - Lecourbe,8.0,2.311,48.845,,,,,,,,
971,Epée de Bois - Mouffetard,4.0,2.35,48.842,,,,,,,,
972,Claude Vellefaux - Hôpital Saint-Louis,23.0,2.37,48.873,,,,,,,,
973,Maxime Gorki - Louis Aragon,3.0,2.368,48.789,,,,,,,,
974,Roger Salengro - Général de Gaulle,15.0,2.485,48.82,,,,,,,,
975,Murat - Porte de Saint-Cloud,14.0,2.258,48.838,,,,,,,,
976,Gare Montparnasse - Arrivée,2.0,2.323,48.844,,,,,,,,
977,Camille Risch - Paul Armangot,13.0,2.374,48.775,,,,,,,,
978,Reuilly - Daumesnil,3.0,2.397,48.84,,,,,,,,
979,Place de la Nation - Charonne,4.0,2.4,48.848,,,,,,,,
980,Charentonneau - Maisons Alfort,20.0,2.443,48.81,,,,,,,,
981,Place des Abbesses,1.0,2.339,48.885,,,,,,,,
982,Sorbier - Ménilmontant,10.0,2.39,48.869,,,,,,,,
983,Mairie du 16ème,3.0,2.277,48.864,,,,,,,,
984,Mairie d'Issy,36.0,2.272,48.824,,,,,,,,
985,Square Montholon,5.0,2.346,48.877,,,,,,,,
986,Louis Lumière.,0.0,2.411,48.862,,,,,,,,
987,Maine - Liancourt,4.0,2.324,48.835,,,,,,,,
988,Pyrénées - Avron,5.0,2.406,48.853,,,,,,,,
989,Cité Vaneau,17.0,2.32,48.854,,,,,,,,
990,Leibniz - Jean Dollfus,6.0,2.333,48.896,,,,,,,,
991,Herschel - Observatoire,6.0,2.338,48.843,,,,,,,,
992,Gambetta - Père Lachaise,8.0,2.398,48.864,,,,,,,,
993,Louis Blanc - La Chapelle,1.0,2.36,48.884,,,,,,,,
994,Gare de Reuilly - Picpus,21.0,2.397,48.843,,,,,,,,
995,Pergolèse - Marbeau,19.0,2.282,48.874,,,,,,,,
996,Porte de Clignancourt - Ney,25.0,2.344,48.9,,,,,,,,
997,Jourdan - Cité Universitaire,2.0,2.34,48.82,,,,,,,,
998,Phalsbourg - Villiers,3.0,2.309,48.882,,,,,,,,
999,Parme - Clichy,7.0,2.328,48.881,,,,,,,,
1000,Beaubourg - Michel-le-Comte,13.0,2.354,48.863,,,,,,,,
1001,Cordelières - Arago,36.0,2.349,48.835,,,,,,,,
1002,Niger - Soult,11.0,2.41,48.844,,,,,,,,
1003,Molitor - Michel-Ange,6.0,2.262,48.845,,,,,,,,
1004,Place du Colonel Fabien,8.0,2.37,48.878,,,,,,,,
1005,Gare Saint-Lazare - Stockholm,4.0,2.322,48.877,,,,,,,,
1006,Turbigo - Française,8.0,2.348,48.864,,,,,,,,
1007,Centquatre,15.0,2.371,48.889,,,,,,,,
1008,Place de l'Europe - Alfortville,12.0,2.428,48.789,,,,,,,,
1009,Emile Reynaud - Porte de la Villette ,17.0,2.389,48.901,,,,,,,,
1010,Turbigo - Réaumur,20.0,2.356,48.866,,,,,,,,
1011,Bargue -  Dutot,10.0,2.309,48.838,,,,,,,,
1012,Chausson - Gabriel Péri,17.0,2.295,48.922,,,,,,,,
1013,Beaumarchais - Saint-Gilles,44.0,2.368,48.858,,,,,,,,
1014,Pyrénées - Plaine,8.0,2.406,48.85,,,,,,,,
1015,Louis le Grand - Italiens,17.0,2.334,48.871,,,,,,,,
1016,Charenton - Jardiniers,11.0,2.395,48.834,,,,,,,,
1017,Porte de Pantin.,9.0,2.395,48.889,,,,,,,,
1018,Lucien Lanternier - Le Luth,24.0,2.289,48.932,,,,,,,,
1019,Archives - Rivoli,2.0,2.354,48.857,,,,,,,,
1020,Frères Flavien - Porte des Lilas,11.0,2.411,48.878,,,,,,,,
1021,Sainte-Elisabeth - Turbigo,26.0,2.36,48.866,,,,,,,,
1022,Joffre - Aigle,4.0,2.245,48.904,,,,,,,,
1023,Française - Etienne Marcel,27.0,2.348,48.864,,,,,,,,
1024,Maurice Payret-Dortail,4.0,2.223,48.878,,,,,,,,
1025,Nationale - Vincent Auriol,5.0,2.362,48.833,,,,,,,,
1026,Etienne Marcel - Montorgueil,18.0,2.346,48.865,,,,,,,,
1027,Square Emile - Chautemps,18.0,2.354,48.867,,,,,,,,
1028,Cléry - Montmartre,17.0,2.345,48.867,,,,,,,,
1029,Montmartre - Etienne Marcel,6.0,2.345,48.865,,,,,,,,
1030,Solitaires - Place des Fêtes,3.0,2.392,48.877,,,,,,,,
1031,Temple - Haudriettes,16.0,2.357,48.862,,,,,,,,
1032,Saint-Denis - Réaumur,23.0,2.351,48.866,,,,,,,,
1033,Gare d'Austerlitz - Pont Charles de Gaulle,2.0,2.367,48.842,,,,,,,,
1034,Didot - Mariniers,1.0,2.313,48.827,,,,,,,,
1035,Olivier de Serres - Leriche,9.0,2.296,48.835,,,,,,,,
1036,Mairie du 3ème,25.0,2.362,48.864,,,,,,,,
1037,Gardenat-Lapostol - Velettes,3.0,2.224,48.874,,,,,,,,
1038,Blancs-Manteaux - Archives,13.0,2.356,48.859,,,,,,,,
1039,Adolphe Pinard - Victor Hugo,9.0,2.308,48.824,,,,,,,,
1040,Bézout - Général Leclerc,5.0,2.329,48.829,,,,,,,,
1041,Hôtel de Ville d'Asnières sur Seine,28.0,2.288,48.91,,,,,,,,
1042,Place de la République - Temple,12.0,2.364,48.867,,,,,,,,
1043,Gare du Nord - La Chapelle,6.0,2.356,48.884,,,,,,,,
1044,Quai des Célestins - Henri IV,3.0,2.362,48.851,,,,,,,,
1045,Victoire - Laffitte,4.0,2.338,48.875,,,,,,,,
1046,Eugène Varlin - Place de la Paix,1.0,2.363,48.793,,,,,,,,
1047,Rivoli - Musée du Louvre,15.0,2.334,48.864,,,,,,,,
1048,Alouettes - Maréchal de Lattre de Tassigny,5.0,2.493,48.855,,,,,,,,
1049,Saint-Gilles - Turenne,13.0,2.365,48.858,,,,,,,,
1050,Mairie du 4ème,27.0,2.356,48.856,,,,,,,,
1051,Fille du Calvaire - Turenne,25.0,2.365,48.862,,,,,,,,
1052,Tiron - Rivoli ,20.0,2.358,48.856,,,,,,,,
1053,Froidevaux - Boulard,9.0,2.329,48.835,,,,,,,,
1054,Village Saint-Paul,20.0,2.361,48.853,,,,,,,,
1055,Cesaria Evora - Rosa Parks,3.0,2.375,48.897,,,,,,,,
1056,Château - République,20.0,2.254,48.906,,,,,,,,
1057,Bas - Gabriel Péri,15.0,2.295,48.916,,,,,,,,
1058,Poulet - Barbès,0.0,2.349,48.887,,,,,,,,
1059,Choiseul - Quatre Septembre ,8.0,2.336,48.87,,,,,,,,
1060,Mairie du Kremlin-Bicêtre,6.0,2.357,48.812,,,,,,,,
1061,Porte de Saint Cloud - Parc des Princes,15.0,2.253,48.839,,,,,,,,
1062,Square Pierre Lazareff,9.0,2.348,48.867,,,,,,,,
1063,Jean-Jacques Rousseau - Deux Ecus,17.0,2.341,48.863,,,,,,,,
1064,Ventadour - Opéra,24.0,2.334,48.867,,,,,,,,
1065,Saint-Bon - Rivoli,10.0,2.35,48.858,,,,,,,,
1066,Grande Rue - Europe,1.0,2.206,48.822,,,,,,,,
1067,Édouard Vaillant - Place Jean Jaurès,8.0,2.209,48.863,,,,,,,,
1068,Aboukir - Alexandrie,17.0,2.35,48.869,,,,,,,,
1069,Alger - Rivoli,7.0,2.329,48.865,,,,,,,,
1070,Mairie de Rosny-sous-Bois,26.0,2.487,48.871,,,,,,,,
1071,Saint-Honoré - 29 juillet,11.0,2.331,48.866,,,,,,,,
1072,Gare des Vallées,9.0,2.258,48.913,,,,,,,,
1073,Choisy - Malmaisons,8.0,2.363,48.822,,,,,,,,
1074,Oratoire - Rivoli,13.0,2.34,48.861,,,,,,,,
1075,Filles Saint-Thomas - Place de la Bourse,9.0,2.34,48.869,,,,,,,,
1076,Pau Casals - Neuve Tolbiac,25.0,2.377,48.831,,,,,,,,
1077,Chaussée d'Antin - Haussmann,18.0,2.334,48.872,,,,,,,,
1078,Mairie du 2ème,17.0,2.34,48.867,,,,,,,,
1079,Place du Lieutenant Henri Karcher,22.0,2.34,48.863,,,,,,,,
1080,Arthur Ranc - Hôpital Bichat,6.0,2.334,48.898,,,,,,,,
1081,Le Goff - Gay-Lussac,29.0,2.341,48.846,,,,,,,,
1082,Saint-Placide - Cherche Midi,22.0,2.325,48.849,,,,,,,,
1083,Bréa - Raspail,9.0,2.33,48.843,,,,,,,,
1084,Amédée Huon - Fort d'Ivry,9.0,2.388,48.805,,,,,,,,
1085,Saint-Honoré - Musée du Louvre,5.0,2.335,48.863,,,,,,,,
1086,Jouffroy d'Abbans - Villiers,3.0,2.306,48.884,,,,,,,,
1087,Archives - Pastourelle,23.0,2.36,48.862,,,,,,,,
1088,Résistance - Parmentier,3.0,2.437,48.86,,,,,,,,
1089,Place de la Division Leclerc,14.0,2.273,48.794,,,,,,,,
1090,Cardinal Lavigerie,17.0,2.403,48.833,,,,,,,,
1091,Coquillière - Louvre,13.0,2.343,48.864,,,,,,,,
1092,Lampes,40.0,2.402,48.812,,,,,,,,
1093,Place des Victoires,17.0,2.342,48.866,,,,,,,,
1094,Danielle Casanova - Opéra,17.0,2.333,48.868,,,,,,,,
1095,Victor Massé - Jean-Baptiste Pigalle,6.0,2.337,48.881,,,,,,,,
1096,Belles Feuilles - Place de Mexico,3.0,2.283,48.866,,,,,,,,
1097,Place André Malraux,6.0,2.336,48.864,,,,,,,,
1098,Les Halles - Saint-Eustache,6.0,2.343,48.864,,,,,,,,
1099,Jules Guesdes - Carnot,13.0,2.351,48.938,,,,,,,,
1100,Simon Bolivar - Henri Turot,8.0,2.374,48.877,,,,,,,,
1101,Silly - Louis Blériot,14.0,2.234,48.832,,,,,,,,
1102,Les Blagis,12.0,2.303,48.785,,,,,,,,
1103,Saint-Mande - Picpus,10.0,2.402,48.845,,,,,,,,
1104,Sorbier - Gasnier-Guy,11.0,2.394,48.865,,,,,,,,
1105,Paganini - Davout,9.0,2.412,48.851,,,,,,,,
1106,Saint-Fiacre - Poissonière,4.0,2.346,48.871,,,,,,,,
1107,Bagnolet - Place Saint-Blaise,6.0,2.403,48.86,,,,,,,,
1108,Gare RER - Maurice Grandcoing,31.0,2.392,48.814,,,,,,,,
1109,Jouffroy d'Abbans - Malesherbes,2.0,2.307,48.885,,,,,,,,
1110,Gobelins - Port-Royal,17.0,2.352,48.837,,,,,,,,
1111,Place du Maréchal de Lattre de Tassigny,26.0,2.285,48.822,,,,,,,,
1112,Belleville -  Pré Saint-Gervais,1.0,2.393,48.876,,,,,,,,
1113,Manin - Secrétan,13.0,2.379,48.879,,,,,,,,
1114,Château de Vincennes,18.0,2.439,48.844,,,,,,,,
1115,Paix - Verdun,12.0,2.261,48.901,,,,,,,,
1116,Place Denfert-Rochereau,17.0,2.246,48.843,,,,,,,,
1117,Saint-Augustin,9.0,2.32,48.876,,,,,,,,
1118,Bobillot - Tolbiac,9.0,2.35,48.826,,,,,,,,
1119,Lecourbe - Convention,41.0,2.292,48.839,,,,,,,,
1120,Dôme - République,7.0,2.25,48.833,,,,,,,,
1121,Chevaleret - Louise Weiss,22.0,2.371,48.833,,,,,,,,
1122,Roquette - Auguste Laurent,12.0,2.382,48.858,,,,,,,,
1123,Mathis - Flandre,18.0,2.376,48.891,,,,,,,,
1124,Pyrénées - Cours de Vincennes,6.0,2.406,48.848,,,,,,,,
1125,Suffren - La Motte-Piquet,21.0,2.301,48.851,,,,,,,,
1126,Général Leclerc - Bièvre,2.0,2.317,48.782,,,,,,,,
1127,Place du Docteur Yersin,22.0,2.373,48.82,,,,,,,,
1128,Taitbout - Châteaudun,12.0,2.335,48.876,,,,,,,,
1129,Francoeur - Caulaincourt,9.0,2.343,48.89,,,,,,,,
1130,Léon Frot - Charonne,18.0,2.387,48.855,,,,,,,,
1131,Duméril - Jeanne d'Arc,21.0,2.357,48.838,,,,,,,,
1132,Dom-Pérignon - Gravelle,8.0,2.41,48.825,,,,,,,,
1133,Félix Faure - Convention,40.0,2.288,48.841,,,,,,,,
1134,Franquet - Labrouste,12.0,2.307,48.833,,,,,,,,
1135,Maxime Gorki - Paul Vaillant-Couturier,6.0,2.368,48.797,,,,,,,,
1136,Cambronne - Mademoiselle,24.0,2.302,48.843,,,,,,,,
1137,Balzac - Champs Elysées,2.0,2.3,48.873,,,,,,,,
1138,Euryale Dehaynin - Loire,4.0,2.377,48.886,,,,,,,,
1139,Riquet - Marx Dormoy,27.0,2.36,48.89,,,,,,,,
1140,Pierre Charron - Champs-Elysées,5.0,2.304,48.87,,,,,,,,
1141,Hauteville - Bonne Nouvelle,0.0,2.35,48.871,,,,,,,,
1142,Place de la vache noire,7.0,2.327,48.81,,,,,,,,
1143,Place Tristan Bernard,12.0,2.292,48.879,,,,,,,,
1144,Place Charles Digeon,20.0,2.418,48.844,,,,,,,,
1145,Gouthière - Poterne des Peupliers,23.0,2.351,48.821,,,,,,,,
1146,Hector Malot - Daumesnil,45.0,2.377,48.847,,,,,,,,
1147,Port Royal - Hôpital Cochin,14.0,2.341,48.838,,,,,,,,
1148,Place de la Nation - Taillebourg,2.0,2.397,48.849,,,,,,,,
1149,Gergovie - Alésia,4.0,2.319,48.831,,,,,,,,
1150,Jean de la Fontaine - Boulainvilliers,26.0,2.276,48.853,,,,,,,,
1151,Gambetta - Tourelles,0.0,2.406,48.875,,,,,,,,
1152,Place Eustache Deschamps,20.0,2.337,48.794,,,,,,,,
1153,Square des Amandiers,9.0,2.389,48.866,,,,,,,,
1154,LCL Campus - Place Oscar Niemeyer,11.0,2.364,48.805,,,,,,,,
1155,Général De Gaulle - Vivien,9.0,2.419,48.836,,,,,,,,
1156,Bercy - Traversiére,2.0,2.37,48.846,,,,,,,,
1157,Buzenval - Vignoles,10.0,2.4,48.854,,,,,,,,
1158,Edouard Pailleron - Bouret,0.0,2.377,48.881,,,,,,,,
1159,Pierre Joseph Desault,11.0,2.379,48.821,,,,,,,,
1160,Guillaume Tell - Parc Henri Barbusse,1.0,2.42,48.89,,,,,,,,
1161,Olympiades,6.0,2.365,48.827,,,,,,,,
1162,Pyrénées - Charles Renouvier,6.0,2.4,48.861,,,,,,,,
1163,Edith Cavell - Volta,20.0,2.269,48.902,,,,,,,,
1164,Hôtel de Ville de Vincennes,2.0,2.44,48.848,,,,,,,,
1165,Maine - Jean Zay,7.0,2.323,48.838,,,,,,,,
1166,Tombe Issoire - René Coty,8.0,2.334,48.831,,,,,,,,
1167,Siam - La Pompe,2.0,2.275,48.862,,,,,,,,
1168,Marcadet - Ramey,4.0,2.345,48.891,,,,,,,,
1169,George Sand - Jean de La Fontaine,15.0,2.268,48.85,,,,,,,,
1170,Porte de la Plaine,14.0,2.292,48.828,,,,,,,,
1171,Alexandre Dumas - Place de la Réunion,6.0,2.4,48.855,,,,,,,,
1172,Rome - Provence,17.0,2.326,48.874,,,,,,,,
1173,Enfants du Paradis - Peupliers,16.0,2.257,48.833,,,,,,,,
1174,Marcel Pourtout - Édouard Manet ,20.0,2.166,48.876,,,,,,,,
1175,Sahel - Général Michel Bizot,9.0,2.404,48.841,,,,,,,,
1176,Saint-Séverin - Saint-Michel,25.0,2.344,48.853,,,,,,,,
1177,Duhamel - André Gide,1.0,2.313,48.837,,,,,,,,
1178,Ancienne Mairie - André Morizet,14.0,2.234,48.838,,,,,,,,
1179,Marceau - Président Wilson,16.0,2.3,48.865,,,,,,,,
1180,Bourdonnais - Tour Eiffel,41.0,2.296,48.861,,,,,,,,
1181,Lavoisier - Missak Manouchian,17.0,2.496,48.863,,,,,,,,
1182,Guy Môquet - Compoint,20.0,2.323,48.892,,,,,,,,
1183,René Coty - Place Denfert-Rochereau,3.0,2.333,48.833,,,,,,,,
1184,Place Aristide Briand,5.0,2.413,48.822,,,,,,,,
1185,Charonne - Alexandre Dumas,6.0,2.395,48.856,,,,,,,,
1186,Montreuil - République,4.0,2.435,48.85,,,,,,,,
1187,Mairie de Bagnolet,16.0,2.418,48.868,,,,,,,,
1188,Constantine - Université,27.0,2.315,48.861,,,,,,,,
1189,Legendre - Nollet,7.0,2.32,48.888,,,,,,,,
1190,Assas - Rennes,2.0,2.329,48.849,,,,,,,,
1191,Rampal - Belleville,3.0,2.38,48.873,,,,,,,,
1192,Fief - République,7.0,2.256,48.832,,,,,,,,
1193,Ménilmontant - Oberkampf,10.0,2.383,48.867,,,,,,,,
1194,Reynaldo Hahn - Lagny,9.0,2.412,48.849,,,,,,,,
1195,Pasteur - Cotentin,0.0,2.316,48.839,,,,,,,,
1196,M.- A. Lagroua Weill-Hallé -  F. Dolto,53.0,2.38,48.829,,,,,,,,
1197,Lorraine - Jean Jaurès,13.0,2.383,48.886,,,,,,,,
1198,Bois de Vincennes - Polygone,25.0,2.431,48.835,,,,,,,,
1199,Mairie du 20ème,2.0,2.399,48.865,,,,,,,,
1200,Colonel Pierre Avia,23.0,2.275,48.83,,,,,,,,
1201,Championnet.,5.0,2.35,48.895,,,,,,,,
1202,Arthur Auger - Jean Jaurès,1.0,2.307,48.814,,,,,,,,
1203,Dantzig - Lefebvre,6.0,2.296,48.83,,,,,,,,
1204,Verdier - République,6.0,2.317,48.815,,,,,,,,
1205,Galilée - Vernet,3.0,2.299,48.872,,,,,,,,
1206,Marché d'Auteuil,2.0,2.265,48.848,,,,,,,,
1207,Victor Hugo - Bineau,4.0,2.278,48.888,,,,,,,,
1208,Volontaires - Vaugirard,4.0,2.308,48.841,,,,,,,,
1209,Passy - Place du Costa Rica,4.0,2.284,48.858,,,,,,,,
1210,Guillaume Bertrand - République,28.0,2.381,48.864,,,,,,,,
1211,Regard - Rennes,19.0,2.327,48.847,,,,,,,,
1212,Louis Blanc - Aqueduc,6.0,2.364,48.882,,,,,,,,
1213,Philippe-Auguste,4.0,2.393,48.852,,,,,,,,
1214,Porte de Charenton,20.0,2.399,48.831,,,,,,,,
1215,Hôtel de Ville de Rueil-Malmaison,16.0,2.182,48.878,,,,,,,,
1216,Arsonval - Falguière,2.0,2.313,48.84,,,,,,,,
1217,Etienne Dolet - Place Maurice Chevalier,8.0,2.385,48.868,,,,,,,,
1218,Carpeaux - Place Jacques Froment,7.0,2.331,48.891,,,,,,,,
1219,Place d'Italie - Soeur Rosalie,12.0,2.355,48.832,,,,,,,,
1220,Jean Bologne - Passy,1.0,2.28,48.858,,,,,,,,
1221,Saint-Marcel - Hôpital,17.0,2.361,48.84,,,,,,,,
1222,Geoffroy-Saint-Hilaire - Saint-Marcel,13.0,2.357,48.839,,,,,,,,
1223,Pyrénées - Dagorno,6.0,2.405,48.855,,,,,,,,
1224,Place Saint-André des Arts,25.0,2.343,48.853,,,,,,,,
1225,Saint-Maur - République,10.0,2.378,48.864,,,,,,,,
1226,Montparnasse -  Square Ozanam,20.0,2.327,48.843,,,,,,,,
1227,Bobillot - Moulin des Prés,11.0,2.353,48.829,,,,,,,,
1228,Rond-Point Rhin et Danube,46.0,2.228,48.84,,,,,,,,
1229,Flandre - Ourcq,18.0,2.379,48.893,,,,,,,,
1230,Point du Jour - Jean Jaurès,14.0,2.246,48.829,,,,,,,,
1231,Commandant Charcot - Bretteville,31.0,2.256,48.875,,,,,,,,
1232,Colisée - Champs-Elysées,6.0,2.308,48.87,,,,,,,,
1233,Crimée - Ourcq,14.0,2.373,48.894,,,,,,,,
1234,Metz - Marne,5.0,2.387,48.891,,,,,,,,
1235,Saint-Mandé - Docteur Arnold Netter,10.0,2.405,48.845,,,,,,,,
1236,Bertrand Sincholle - Henri Barbusse,23.0,2.304,48.899,,,,,,,,
1237,Lacépède - Linné,19.0,2.355,48.844,,,,,,,,
1238,Jacquier - Didot,3.0,2.318,48.83,,,,,,,,
1239,Général Michel Bizot - Claude Decaen,28.0,2.401,48.835,,,,,,,,
1240,Ivry - Baudricourt,13.0,2.363,48.825,,,,,,,,
1241,Guynemer - Jardin du Luxembourg,22.0,2.333,48.847,,,,,,,,
1242,Square Gilbert Thomain,11.0,2.27,48.907,,,,,,,,
1243,Magenta - Chabrol,5.0,2.356,48.876,,,,,,,,
1244,Jessaint - Marx Dormoy,1.0,2.359,48.885,,,,,,,,
1245,République - Auguste Perret,6.0,2.352,48.787,,,,,,,,
1246,Danielle Casanova - Ledru-Rollin,20.0,2.383,48.816,,,,,,,,
1247,Cossonnerie - Sébastopol,5.0,2.349,48.861,,,,,,,,
1248,Lucien Bossoutrot - Général Martial Vallin,29.0,2.274,48.837,,,,,,,,
1249,Quai de Béthune - Pont de la Tournelle,25.0,2.356,48.851,,,,,,,,
1250,Ecole Vétérinaire,34.0,2.422,48.815,,,,,,,,
1251,Belfort - Victor Hugo,22.0,2.317,48.902,,,,,,,,
1252,Stalingrad - Henri Luisette,8.0,2.367,48.784,,,,,,,,
1253,Youri Gagarine - Commune de Paris,26.0,2.394,48.782,,,,,,,,
1254,Strasbourg - Saint-Denis,7.0,2.354,48.87,,,,,,,,
1255,Arche - Léonard de Vinci,10.0,2.238,48.898,,,,,,,,
1256,Parvis Robert Schuman - Roger Salengro,1.0,2.192,48.813,,,,,,,,
1257,Champeaux - Gallieni,2.0,2.416,48.864,,,,,,,,
1258,Wilson - Landy,9.0,2.358,48.915,,,,,,,,
1259,Chancé Milly - Cimetière Communal Sud,19.0,2.304,48.897,,,,,,,,
1260,Gustave Eiffel - Parc des Impressionnistes,17.0,2.295,48.904,,,,,,,,
1261,Lally-Tollendal - Armand Carrel,7.0,2.375,48.883,,,,,,,,
1262,Réaumur - Montmartre,3.0,2.344,48.868,,,,,,,,
1263,Barbès - Monique Maunoury,3.0,2.369,48.816,,,,,,,,
1264,République - Louis Loucheur,32.0,2.51,48.824,,,,,,,,
1265,Théâtre de La Garenne,11.0,2.235,48.906,,,,,,,,
1266,Convention - Lourmel,34.0,2.286,48.842,,,,,,,,
1267,Gare de Nogent-le-Perreux,31.0,2.494,48.838,,,,,,,,
1268,Nanterre - Université,19.0,2.213,48.901,,,,,,,,
1269,Square Victor Basch,11.0,2.229,48.914,,,,,,,,
1270,Parc Pierre Lagravère,17.0,2.239,48.927,,,,,,,,
1271,Pierre Larousse - Raymond Losserand,11.0,2.312,48.831,,,,,,,,
1272,Gare RER - Canadiens,7.0,2.464,48.82,,,,,,,,
1273,Quai de la Gare - Pont de Bercy,16.0,2.374,48.837,,,,,,,,
1274,Cité de la Musique,4.0,2.393,48.889,,,,,,,,
1275,Hôpital Robert Debré,3.0,2.401,48.88,,,,,,,,
1276,Basilique,18.0,2.359,48.936,,,,,,,,
1277,Quai Jules Guesde - Saint-Simon,20.0,2.409,48.804,,,,,,,,
1278,Karl Marx,4.0,2.365,48.785,,,,,,,,
1279,Sèvres - Général Leclerc,27.0,2.231,48.83,,,,,,,,
1280,Parc Départemental des Hautes-Bruyères,1.0,2.351,48.793,,,,,,,,
1281,Cours de Vincennes - Davout,4.0,2.411,48.847,,,,,,,,
1282,Borrégo - Gambetta,4.0,2.401,48.873,,,,,,,,
1283,Petit - Georges Thill,18.0,2.39,48.886,,,,,,,,
1284,Gare de Bellevue,2.0,2.23,48.819,,,,,,,,
1285,Kléber - National,5.0,2.239,48.906,,,,,,,,
1286,Saint-Denis - Université,6.0,2.364,48.946,,,,,,,,
1287,Halle Freyssinet - Parvis Alan Turing,20.0,2.371,48.833,,,,,,,,
1288,Cours de Vincennes - Soult,9.0,2.411,48.847,,,,,,,,
1289,Val-Fleury,5.0,2.241,48.808,,,,,,,,
1290,Mûriers - Père Lachaise,6.0,2.392,48.864,,,,,,,,
1291,Clignancourt - Sofia,3.0,2.347,48.885,,,,,,,,
1292,BNF - Bibliothèque Nationale de France,32.0,2.376,48.835,,,,,,,,
1293,Pereire - Saussure,9.0,2.31,48.888,,,,,,,,
1294,Waldeck Rochet - Germaine Tillon,3.0,2.368,48.911,,,,,,,,
1295,Saint-Marc - Feydeau,2.0,2.342,48.87,,,,,,,,
1296,Place Amédée Gordini - Lefebvre,5.0,2.292,48.831,,,,,,,,
1297,Dominique Pado - Croix Nivert,22.0,2.29,48.836,,,,,,,,
1298,Guy Môquet - Parvis Georges Marchais,3.0,2.359,48.795,,,,,,,,
1299,Redoute - Les Courtilles,29.0,2.284,48.93,,,,,,,,
1300,Argenteuil - Voltaire,14.0,2.281,48.919,,,,,,,,
1301,Hôtel de Ville de Chaville,6.0,2.188,48.809,,,,,,,,
1302,Pesaro - Préfecture,2.0,2.224,48.896,,,,,,,,
1303,Erasme - Ulm,12.0,2.345,48.843,,,,,,,,
1304,Verdier - Jean Jaurès,12.0,2.312,48.816,,,,,,,,
1305,Charles de Gaulle - Sablonville,4.0,2.276,48.88,,,,,,,,
1306,Pasteur - Gambetta,4.0,2.424,48.846,,,,,,,,
1307,Verdun - Carnot,15.0,2.374,48.808,,,,,,,,
1308,Pierre et Marie Curie - Julien Grimau,2.0,2.424,48.871,,,,,,,,
1309,Place de la Porte de Paris,1.0,2.356,48.93,,,,,,,,
1310,Sèvres-Gallieni,22.0,2.228,48.838,,,,,,,,
1311,Madeleine Michelis - Roule,15.0,2.277,48.883,,,,,,,,
1312,Victor Hugo - Gare,15.0,2.26,48.923,,,,,,,,
1313,Marx Dormoy - Château Sainte-Barbe,5.0,2.298,48.792,,,,,,,,
1314,Gare de Robinson,12.0,2.282,48.78,,,,,,,,
1315,Saint-Cloud - Hippodrome,7.0,2.255,48.858,,,,,,,,
1316,Gare de Chaville Rive Gauche,3.0,2.188,48.805,,,,,,,,
1317,Voltaire - Anatole France,8.0,2.284,48.892,,,,,,,,
1318,André Theuriet - Blagis,5.0,2.313,48.78,,,,,,,,
1319,Adolphe Lalyre - Armand Silvestre,23.0,2.273,48.904,,,,,,,,
1320,Jean-Baptiste Charcot - Sainte-Geneviève,14.0,2.279,48.903,,,,,,,,
1321,Mairie de La Garenne Colombes,10.0,2.247,48.907,,,,,,,,
1322,Pitié-Salpêtrière,17.0,2.365,48.837,,,,,,,,
1323,Place du 14 Juillet,5.0,2.301,48.819,,,,,,,,
1324,Henri Barbusse - Stalingrad,6.0,2.287,48.814,,,,,,,,
1325,Saint Lambert - Blomet,19.0,2.293,48.837,,,,,,,,
1326,Pierre Brossolette - 12 Février 1934,15.0,2.308,48.818,,,,,,,,
1327,Mairie de Romainville,8.0,2.436,48.885,,,,,,,,
1328,Château - Place de Catalogne,4.0,2.319,48.837,,,,,,,,
1329,Italie - Tolbiac,2.0,2.358,48.826,,,,,,,,
1330,Stalingrad - Germaine Tailleferre,7.0,2.379,48.803,,,,,,,,
1331,Boulard - Daguerre,7.0,2.329,48.834,,,,,,,,
1332,Place Paul Delouvrier,9.0,2.385,48.892,,,,,,,,
1333,Roger Salengro - Fontainebleau,4.0,2.361,48.815,,,,,,,,
1334,Mazagran - Bonne Nouvelle,11.0,2.351,48.87,,,,,,,,
1335,Place du Palais Royal,1.0,2.338,48.862,,,,,,,,
1336,Stade Pershing,0.0,2.458,48.829,,,,,,,,
1337,Madeleine Vionnet,15.0,2.374,48.903,,,,,,,,
1338,Hippodrome Paris-Vincennes,20.0,2.446,48.82,,,,,,,,
1339,Ranelagh - Mozart,1.0,2.27,48.855,,,,,,,,
1340,Suresnes - Muette à Neuilly,9.0,2.266,48.869,,,,,,,,
1341,Place de la Bastille - Bourdon,30.0,2.368,48.852,,,,,,,,
1342,Mstislav Rostropovitch - Berthier,4.0,2.309,48.892,,,,,,,,
1343,Georges V - François 1er,4.0,2.301,48.87,,,,,,,,
1344,George V - Christophe Colomb,5.0,2.301,48.87,,,,,,,,
1345,Rouget de Lisle,32.0,2.407,48.765,,,,,,,,
1346,Eugène Reisz - Davout,6.0,2.41,48.856,,,,,,,,
1347,Tristan Tzara -  Tchaïkovski,14.0,2.365,48.895,,,,,,,,
1348,Chabanais - Petits Champs,21.0,2.337,48.867,,,,,,,,
1349,Neuilly - Petit,11.0,2.296,48.899,,,,,,,,
1350,Parc Floral du Bel Air,14.0,2.439,48.839,,,,,,,,
1351,Place Jacques et Thérèse Tréfouël,2.0,2.313,48.843,,,,,,,,
1352,Diane Arbus,28.0,2.352,48.899,,,,,,,,
1353,Verdun - Pierre et Marie Curie,6.0,2.371,48.813,,,,,,,,
1354,Jean Jaurès - Paul Lafargue,5.0,2.248,48.885,,,,,,,,
1355,Saint-Michel - Luxembourg,5.0,2.339,48.845,,,,,,,,
1356,Hippodrome de Longchamp,3.0,2.24,48.864,,,,,,,,
1357,Berthier - Porte de Clichy,9.0,2.313,48.894,,,,,,,,
1358,Capitaine Glarner - Gabriel Péri,21.0,2.33,48.902,,,,,,,,
1359,Garibaldi - Gabriel Péri,24.0,2.332,48.906,,,,,,,,
1360,Sèvres - Maréchal Juin,18.0,2.229,48.832,,,,,,,,
1361,Blanqui - Docteur Bauer,9.0,2.341,48.908,,,,,,,,
1362,Victor Hugo - Paul Eluard,16.0,2.411,48.82,,,,,,,,
1363,Bons Raisins - Voltaire,2.0,2.195,48.873,,,,,,,,
1364,Hôtel de Ville de Saint-Ouen,29.0,2.334,48.911,,,,,,,,
1365,Clef des Champs - Albert Dhalenne,16.0,2.331,48.915,,,,,,,,
1366,Nungesser - Santé,5.0,2.449,48.852,,,,,,,,
1367,Cartier Bresson - Denis Papin,7.0,2.398,48.903,,,,,,,,
1368,Champs de Manoeuvre - Cartoucherie,7.0,2.448,48.835,,,,,,,,
1369,Adrien Lesesne - Docteur Bauer,15.0,2.348,48.903,,,,,,,,
1370,Henri Barbusse - Bourguignons,26.0,2.273,48.913,,,,,,,,
1371,Marceau Delorme - Pierre Brossolette,25.0,2.296,48.912,,,,,,,,
1372,Porte de Clichy - Place des Nations Unies,22.0,2.311,48.897,,,,,,,,
1373,Jean Jaurès - Place du Dr Roux,32.0,2.295,48.928,,,,,,,,
1374,Sèvres Rive Gauche,0.0,2.215,48.821,,,,,,,,
1375,Place du 17 Octobre,17.0,2.298,48.92,,,,,,,,
1376,Gardenat Lapostol - Franklin Roosevelt,0.0,2.223,48.872,,,,,,,,
1377,Séminaire de Conflans - Liberté,5.0,2.404,48.823,,,,,,,,
1378,Bichat - Grange aux Belles,15.0,2.365,48.874,,,,,,,,
1379,Henri Barbusse - Gabriel Péri,12.0,2.287,48.802,,,,,,,,
1380,Béranger - Félix Faure,7.0,2.285,48.804,,,,,,,,
1381,Avenir,5.0,2.3,48.81,,,,,,,,
1382,Place Henri Dunant - Gare RER,10.0,2.291,48.788,,,,,,,,
1383,Guy Môquet - Jean Moulin,23.0,2.364,48.941,,,,,,,,
1384,Parc des Pierrettes,2.0,2.291,48.797,,,,,,,,
1385,Hélène et François Missoffe - Emile Borel,22.0,2.322,48.9,,,,,,,,
1386,Châteaudun - Place de la Liberté,22.0,2.245,48.91,,,,,,,,
1387,Edouard Poisson - Victor Hugo,18.0,2.38,48.911,,,,,,,,
1388,Place de la Paix - Abbé Saint-Pierre,8.0,2.205,48.865,,,,,,,,
1389,Gare RER,23.0,2.46,48.896,,,,,,,,
1390,Simone Signoret - Paris,18.0,2.465,48.904,,,,,,,,
1391,Oberkampf - République,13.0,2.376,48.865,,,,,,,,
1392,Square Alban Satragne,6.0,2.356,48.875,,,,,,,,
1393,Division Leclerc - Kléber,6.0,2.283,48.799,,,,,,,,
1394,Marcel Monge - Marcel Dassault,5.0,2.225,48.861,,,,,,,,
1395,Dora Maar - Nadia Guendouz,19.0,2.322,48.905,,,,,,,,
1396,Raspail Barbès,13.0,2.425,48.853,,,,,,,,
1397,Fontaine du Tertre - Calvaire,1.0,2.219,48.87,,,,,,,,
1398,Place Jean Mermoz,23.0,2.272,48.922,,,,,,,,
1399,Vladimir Ilitch Lénine - Andrée Chedid,15.0,2.332,48.813,,,,,,,,
1400,Quatre Vents - Carrefour de l'Odéon,20.0,2.338,48.852,,,,,,,,
1401,Paul Valery - Victor Hugo,3.0,2.289,48.871,,,,,,,,
1402,Faubourg St-Antoine - Place de la Nation,3.0,2.394,48.849,,,,,,,,
1403,Gare RER les Ardoines,34.0,2.408,48.784,,,,,,,,
1404,Roland Garros - Jean Bouin,7.0,2.285,48.809,,,,,,,,
1405,Martyrs de Châteaubriant - Jean Grandel,8.0,2.211,48.951,,,,,,,,
1406,Bourdon - Pont Morland,40.0,2.366,48.848,,,,,,,,
1407,Charles de Gaulle - Rue de l'Alma,6.0,2.252,48.897,,,,,,,,
1408,Gare RER - Général de Gaulle,27.0,2.306,48.934,,,,,,,,
1409,Résistance - Romain Rolland,24.0,2.231,48.951,,,,,,,,
1410,Quai de Sèvres - Manufacture Nationale,26.0,2.225,48.829,,,,,,,,
1411,Maréchal Leclerc de Hauteclocque - Marché Buzenval,3.0,2.192,48.858,,,,,,,,
1412,Place de l'Hôtel de Ville,5.0,2.351,48.857,,,,,,,,
1413,Convention - Campus de Bobigny,30.0,2.417,48.915,,,,,,,,
1414,Pablo Picasso - Maurice Thorez,12.0,2.449,48.907,,,,,,,,
1415,Moscou - Edouard Vaillant,7.0,2.469,48.908,,,,,,,,
1416,Bateliers - Quai de Seine,9.0,2.324,48.916,,,,,,,,
1417,Georges Pompidou - Verdun,16.0,2.232,48.875,,,,,,,,
1418,Place Charles de Gaulle,8.0,2.189,48.826,,,,,,,,
1419,Stalingrad - Général de Gaulle,23.0,2.497,48.823,,,,,,,,
1420,Perrault - Place du Louvre,9.0,2.341,48.86,,,,,,,,
1421,Place Nationale - Château-des-Rentiers,6.0,2.365,48.829,,,,,,,,
1422,Payenne - Square George Caïn,19.0,2.362,48.858,,,,,,,,
1423,Dupont de l'Eure - Gambetta,2.0,2.4,48.868,,,,,,,,
1424,Lamarck - Saint-Ouen,11.0,2.327,48.891,,,,,,,,
1425,Bracion - Périphérique,15.0,2.3,48.826,,,,,,,,
1426,Porte de Versailles,5.0,2.288,48.832,,,,,,,,
1427,Gare de Courbevoie,1.0,2.251,48.899,,,,,,,,
1428,Marceau - Chaillot,2.0,2.299,48.869,,,,,,,,
1429,Gare - Aristide Briand,25.0,2.256,48.821,,,,,,,,
1430,Hispano Suiza - Parc des Bruyères,30.0,2.268,48.916,,,,,,,,
1431,Docteur Calmette - Martre,16.0,2.309,48.899,,,,,,,,
1432,Verger - Colonel Guichard,9.0,2.267,48.816,,,,,,,,
1433,Gabriel Péri - Place de la Libération,4.0,2.312,48.82,,,,,,,,
1434,Arsène Houssaye - Friedland,6.0,2.299,48.875,,,,,,,,
1435,,,2.287,48.863,4bb381b7eb3e9521d738cb0a,16041.0,Plaza,904.0,FR,Paris,19 place du Trocadéro et du Onze Novembre,Place du Trocadéro
1436,,,2.267,48.859,4adcda10f964a5209a3521e3,10027.0,Museum,963.0,FR,Paris,2 rue Louis Boilly,Musée Marmottan Monet
1437,,,2.267,48.859,4adcda10f964a5209a3521e3,10027.0,Museum,3662.0,FR,Paris,2 rue Louis Boilly,Musée Marmottan Monet
1438,,,2.267,48.859,4adcda10f964a5209a3521e3,10027.0,Museum,5188.0,FR,Paris,2 rue Louis Boilly,Musée Marmottan Monet
1439,,,2.288,48.863,4adcda0af964a520673421e3,10037.0,Concert Hall,1007.0,FR,Paris,1 place du Trocadero 16th,Théâtre National de Chaillot
1440,,,2.289,48.863,4adcda10f964a520bb3521e3,10027.0,Museum,1012.0,FR,Paris,1 place du Trocadéro et du Onze Novembre,Cité de l'architecture et du patrimoine
1441,,,2.289,48.871,4c40a4fbe26920a13c385de7,11057.0,Caterer,1098.0,FR,Paris,48 avenue Victo rue Hugo,Lenôtre
1442,,,2.289,48.871,4c40a4fbe26920a13c385de7,11057.0,Caterer,1315.0,FR,Paris,48 avenue Victo rue Hugo,Lenôtre
1443,,,2.289,48.871,4c40a4fbe26920a13c385de7,11057.0,Caterer,563.0,FR,Paris,48 avenue Victo rue Hugo,Lenôtre
1444,,,2.289,48.862,4adcda09f964a520063421e3,16017.0,Garden,1165.0,FR,Paris,place du Trocadéro et du Onze Novembre,Gardens of the Trocadero (Jardins du Trocadéro)
1445,,,2.293,48.871,53f72f4f498e240441adcfc5,13148.0,French Restaurant,1397.0,FR,Paris,19 avenue Kléber,L'Oiseau Blanc
1446,,,2.293,48.871,53f72f4f498e240441adcfc5,13148.0,French Restaurant,1446.0,FR,Paris,19 avenue Kléber,L'Oiseau Blanc
1447,,,2.293,48.871,53f72f4f498e240441adcfc5,13148.0,French Restaurant,745.0,FR,Paris,19 avenue Kléber,L'Oiseau Blanc
1448,,,2.264,48.877,4c08f9cf6071a5933b09dd32,10027.0,Museum,1485.0,FR,Paris,8 avenue du Mahatma Gandhi,Louis Vuitton Foundation (Fondation Louis Vuitton)
1449,,,2.264,48.877,4c08f9cf6071a5933b09dd32,10027.0,Museum,5150.0,FR,Paris,8 avenue du Mahatma Gandhi,Louis Vuitton Foundation (Fondation Louis Vuitton)
1450,,,2.264,48.878,4adcda23f964a520543a21e3,16017.0,Garden,1615.0,FR,Paris,45 avenue du Mahatma Gandhi,Jardin d'Acclimatation
1451,,,2.294,48.858,4e078807e4cdefcff6dce4f6,13148.0,French Restaurant,1596.0,FR,Paris,5 avenue Anatole France,Restaurant 58 Tour Eiffel
1452,,,2.339,48.853,4bbde5128a4fb713b57e3d9d,13036.0,Tea Room,52.0,FR,Paris,59-61 rue Saint-André des Arts,La Jacobine
1453,,,2.339,48.853,4bbde5128a4fb713b57e3d9d,13036.0,Tea Room,393.0,FR,Paris,59-61 rue Saint-André des Arts,La Jacobine
1454,,,2.338,48.853,4d9f8e297ec88cfa0cdc865a,13041.0,Creperie,107.0,FR,Paris,11 rue Gregoire de Tours Métro Odéon,Little Breizh
1455,,,2.338,48.853,4d9f8e297ec88cfa0cdc865a,13041.0,Creperie,420.0,FR,Paris,11 rue Gregoire de Tours Métro Odéon,Little Breizh
1456,,,2.338,48.855,4b22eca6f964a5206c5024e3,13009.0,Cocktail Bar,161.0,FR,Paris,23 rue Mazarine 6e,Prescription Cocktail Club
1457,,,2.338,48.855,4b22eca6f964a5206c5024e3,13009.0,Cocktail Bar,278.0,FR,Paris,23 rue Mazarine 6e,Prescription Cocktail Club
1458,,,2.339,48.852,4afd8300f964a5203a2822e3,13025.0,Wine Bar,191.0,FR,Paris,3 carrefour de l'Odéon,L'Avant-Comptoir
1459,,,2.339,48.852,4afd8300f964a5203a2822e3,13025.0,Wine Bar,359.0,FR,Paris,3 carrefour de l'Odéon,L'Avant-Comptoir
1460,,,2.34,48.856,53568d3e498e92e5a3a56f36,13010.0,Dive Bar,245.0,FR,Paris,10 rue Dauphine 75006,Chez Nous
1461,,,2.34,48.856,53568d3e498e92e5a3a56f36,13010.0,Dive Bar,402.0,FR,Paris,10 rue Dauphine 75006,Chez Nous
1462,,,2.339,48.852,59468bd1898bdc07ffc0d6ac,13041.0,Creperie,236.0,FR,Paris,1 rue de l'Odéon,Breizh Café
1463,,,2.339,48.852,59468bd1898bdc07ffc0d6ac,13041.0,Creperie,356.0,FR,Paris,1 rue de l'Odéon,Breizh Café
1464,,,2.339,48.852,59468bd1898bdc07ffc0d6ac,13041.0,Creperie,1581.0,FR,Paris,1 rue de l'Odéon,Breizh Café
1465,,,2.339,48.852,56a761bd498e4801a8e214da,13338.0,Seafood Restaurant,178.0,FR,Paris,3 Carrefour de l'Odéon,Croissance 5 Avant comptoir de la mer
1466,,,2.339,48.852,56a761bd498e4801a8e214da,13338.0,Seafood Restaurant,377.0,FR,Paris,3 Carrefour de l'Odéon,Croissance 5 Avant comptoir de la mer
1467,,,2.336,48.854,4b83d2dbf964a5202d1231e3,16041.0,Plaza,253.0,FR,Paris,8 rue de Furstenberg,Place Furstemberg
1468,,,2.336,48.854,4b83d2dbf964a5202d1231e3,16041.0,Plaza,246.0,FR,Paris,8 rue de Furstenberg,Place Furstemberg
1469,,,2.336,48.854,4b83d2dbf964a5202d1231e3,16041.0,Plaza,465.0,FR,Paris,8 rue de Furstenberg,Place Furstemberg
1470,,,2.341,48.855,4b4b6fe4f964a520a19b26e3,13072.0,Asian Restaurant,219.0,FR,Paris,4 rue des Grands Augustins 6e,Ze Kitchen Galerie
1471,,,2.344,48.853,4b530766f964a520f88c27e3,16000.0,Landmarks and Outdoors,352.0,FR,Paris,24 boul. Saint Michel,Place Saint-Michel
1472,,,2.344,48.853,4b530766f964a520f88c27e3,16000.0,Landmarks and Outdoors,203.0,FR,Paris,24 boul. Saint Michel,Place Saint-Michel
1473,,,2.367,48.87,5238a8c711d28a3c7a057397,13065.0,Restaurant,255.0,FR,Paris,46 quai de Jemmapes Paris,La Vache dans les Vignes
1474,,,2.367,48.87,5238a8c711d28a3c7a057397,13065.0,Restaurant,159.0,FR,Paris,46 quai de Jemmapes Paris,La Vache dans les Vignes
1475,,,2.361,48.866,4af5aeaaf964a5203cfb21e3,17057.0,Food and Beverage Retail,310.0,FR,Paris,164 rue du Temple,Monoprix
1476,,,2.361,48.866,4af5aeaaf964a5203cfb21e3,17057.0,Food and Beverage Retail,637.0,FR,Paris,164 rue du Temple,Monoprix
1477,,,2.367,48.865,5c5ef4381acf11002c9cb8fe,13035.0,Coffee Shop,309.0,FR,Paris,140 rue Amelot,Dreaming Man
1478,,,2.363,48.865,4b68a117f964a520c8832be3,13025.0,Wine Bar,326.0,FR,Paris,6 rue Charles-François Dupuis rue de la Corderie,Le Barav
1479,,,2.363,48.865,501ab9cfe4b089ae3961a041,13338.0,Seafood Restaurant,374.0,FR,Paris,4 rue de la Corderie,L'ilot
1480,,,2.361,48.87,533854a0498e13d848afa29f,17085.0,Housewares Store,327.0,FR,Paris,8 et 11 rue du Château-d'Eau,La Trésorerie
1481,,,2.361,48.87,533854a0498e13d848afa29f,17085.0,Housewares Store,389.0,FR,Paris,8 et 11 rue du Château-d'Eau,La Trésorerie
1482,,,2.369,48.865,54fc65f3498e7f86ee38def9,13002.0,Bakery,397.0,FR,Paris,20 rue Jean Pierre Timbaud,Boulangerie Utopie
1483,,,2.366,48.865,548c8b5c498eff940216227a,13025.0,Wine Bar,352.0,FR,Paris,24 boulevard du Temple,Restaurant Martin
1484,,,2.363,48.871,4b5eec5df964a520129e29e3,13002.0,Bakery,402.0,FR,Paris,34 rue Yves Toudic 10e,Du Pain et des Idées
1485,,,2.363,48.871,4b5eec5df964a520129e29e3,13002.0,Bakery,234.0,FR,Paris,34 rue Yves Toudic 10e,Du Pain et des Idées
1486,,,2.367,48.864,587c9bbf286804584a1f28c6,13379.0,Vietnamese Restaurant,434.0,FR,Paris,129 rue Amelot,Banoi
1487,,,2.338,48.858,4adcda09f964a520ff3321e3,16026.0,Monument,310.0,FR,Paris,Pont des Arts,Pont des Arts
1488,,,2.337,48.86,5864efb745c3ed1e7d88e96d,10016.0,Exhibit,420.0,FR,Paris,Musée du Louvre,Venus of Milo (Vénus de Milo)
1489,,,2.331,48.854,4bc094f1920eb713a51b192c,17043.0,Clothing Store,396.0,FR,Paris,173 boulevard Saint Germain,Ralph Lauren
1490,,,2.331,48.854,4bc094f1920eb713a51b192c,17043.0,Clothing Store,520.0,FR,Paris,173 boulevard Saint Germain,Ralph Lauren
1491,,,2.331,48.854,4bc094f1920eb713a51b192c,17043.0,Clothing Store,285.0,FR,Paris,173 boulevard Saint Germain,Ralph Lauren
1492,,,2.331,48.854,4bc094f1920eb713a51b192c,17043.0,Clothing Store,331.0,FR,Paris,173 boulevard Saint Germain,Ralph Lauren
1493,,,2.339,48.86,4c079d740ed3c928b6be797d,16007.0,Building / Structure,511.0,FR,Paris,Musée du Louvre,Cour Carrée
1494,,,2.336,48.861,4adcda10f964a520af3521e3,10027.0,Museum,502.0,FR,Paris,99 rue de Rivoli,The Louvre (Musée du Louvre)
1495,,,2.332,48.853,58553800fad9dc06353fb898,13298.0,Lebanese Restaurant,424.0,FR,Paris,5 rue Bernard Palissy 75006,Cook'n Saj
1496,,,2.332,48.853,58553800fad9dc06353fb898,13298.0,Lebanese Restaurant,544.0,FR,Paris,5 rue Bernard Palissy 75006,Cook'n Saj
1497,,,2.332,48.853,58553800fad9dc06353fb898,13298.0,Lebanese Restaurant,185.0,FR,Paris,5 rue Bernard Palissy 75006,Cook'n Saj
1498,,,2.332,48.853,58553800fad9dc06353fb898,13298.0,Lebanese Restaurant,407.0,FR,Paris,5 rue Bernard Palissy 75006,Cook'n Saj
1499,,,2.335,48.879,503fdaf5e4b003e2b260a76a,13148.0,French Restaurant,203.0,FR,Paris,25 rue la Bruyère,Les Canailles
1500,,,2.34,48.88,4d230a536e8c370402f210a0,13027.0,Bistro,222.0,FR,Paris,3 rue Victor Massé 9e,Le Pantruche
1501,,,2.341,48.881,4cdd3e1f3f6a8cfa698bf6ea,13035.0,Coffee Shop,289.0,FR,Paris,53 avenue Trudaine 9e,KBCafeshop
1502,,,2.341,48.877,527408dd498ed7d6a01dcdc8,13027.0,Bistro,338.0,FR,Paris,8 rue Hippolyte Lebas Paris,Caillebotte
1503,,,2.338,48.885,4b115ed4f964a520157b23e3,16041.0,Plaza,574.0,FR,Paris,1 place des Abbesses,Place des Abbesses
1504,,,2.343,48.883,4adcda17f964a5204f3821e3,10037.0,Concert Hall,578.0,FR,Paris,80 boulevard de Rochechouart 18e,Le Trianon
1505,,,2.343,48.883,4adcda17f964a5204f3821e3,10037.0,Concert Hall,912.0,FR,Paris,80 boulevard de Rochechouart 18e,Le Trianon
1506,,,2.331,48.875,4b3159a7f964a5203e0525e3,10039.0,Music Venue,626.0,FR,Paris,25 rue de Mogador 75009,Théâtre Mogador
1507,,,2.331,48.875,4b3159a7f964a5203e0525e3,10039.0,Music Venue,227.0,FR,Paris,25 rue de Mogador 75009,Théâtre Mogador
1508,,,2.336,48.885,4b980630f964a520ed2635e3,13236.0,Italian Restaurant,668.0,FR,Paris,5 rue Audran,Al Caratello
1509,,,2.332,48.874,5dd296bdd3fbb90007e2e259,13059.0,Juice Bar,748.0,FR,Paris,40 boulevard Haussmann,Joe & The Juice
1510,,,2.332,48.874,5dd296bdd3fbb90007e2e259,13059.0,Juice Bar,276.0,FR,Paris,40 boulevard Haussmann,Joe & The Juice
1511,,,2.332,48.873,4bc9d4260687ef3b1b88dacc,17033.0,Department Store,762.0,FR,Paris,40 boulevard Haussmann,Galeries Lafayette
1512,,,2.332,48.873,4bc9d4260687ef3b1b88dacc,17033.0,Department Store,296.0,FR,Paris,40 boulevard Haussmann,Galeries Lafayette
1513,,,2.384,48.855,50a68565e4b0540fe03b01ff,17058.0,Beer Store,641.0,FR,Paris,101 rue de Charonne,Paris Saint Biere
1514,,,2.38,48.854,50edcbb9e4b0f4e820906b4e,17080.0,Wine Store,926.0,FR,Paris,3 rue Basfroi 11e,Septime la Cave
1515,,,2.38,48.854,50edcbb9e4b0f4e820906b4e,17080.0,Wine Store,1523.0,FR,Paris,3 rue Basfroi 11e,Septime la Cave
1516,,,2.38,48.854,50edcbb9e4b0f4e820906b4e,17080.0,Wine Store,6903.0,FR,Paris,3 rue Basfroi 11e,Septime la Cave
1517,,,2.38,48.854,50edcbb9e4b0f4e820906b4e,17080.0,Wine Store,657.0,FR,Paris,3 rue Basfroi 11e,Septime la Cave
1518,,,2.381,48.854,527d495611d201ce6ba8fb48,13338.0,Seafood Restaurant,899.0,FR,Paris,80 rue de Charonne Paris,Clamato
1519,,,2.381,48.854,527d495611d201ce6ba8fb48,13338.0,Seafood Restaurant,1510.0,FR,Paris,80 rue de Charonne Paris,Clamato
1520,,,2.381,48.854,527d495611d201ce6ba8fb48,13338.0,Seafood Restaurant,6874.0,FR,Paris,80 rue de Charonne Paris,Clamato
1521,,,2.381,48.851,515f4bd0e4b03c1e7855b051,17111.0,Pop-Up Store,973.0,FR,Paris,8 rue Saint-Bernard,Mel
1522,,,2.381,48.851,515f4bd0e4b03c1e7855b051,17111.0,Pop-Up Store,1205.0,FR,Paris,8 rue Saint-Bernard,Mel
1523,,,2.381,48.851,515f4bd0e4b03c1e7855b051,17111.0,Pop-Up Store,3923.0,FR,Paris,8 rue Saint-Bernard,Mel
1524,,,2.381,48.851,515f4bd0e4b03c1e7855b051,17111.0,Pop-Up Store,6735.0,FR,Paris,8 rue Saint-Bernard,Mel
1525,,,2.378,48.857,50543808c84c7e50721da3a6,13145.0,Fast Food Restaurant,1026.0,FR,Paris,85 rue de la Roquette 11e,Chez Aline
1526,,,2.378,48.857,50543808c84c7e50721da3a6,13145.0,Fast Food Restaurant,420.0,FR,Paris,85 rue de la Roquette 11e,Chez Aline
1527,,,2.381,48.85,4b76f8eaf964a5200f702ee3,13027.0,Bistro,1070.0,FR,Paris,43-45 rue de Citeaux,L'Ebauchoir
1528,,,2.381,48.85,4b76f8eaf964a5200f702ee3,13027.0,Bistro,1103.0,FR,Paris,43-45 rue de Citeaux,L'Ebauchoir
1529,,,2.381,48.85,4b76f8eaf964a5200f702ee3,13027.0,Bistro,3797.0,FR,Paris,43-45 rue de Citeaux,L'Ebauchoir
1530,,,2.381,48.85,4b76f8eaf964a5200f702ee3,13027.0,Bistro,6734.0,FR,Paris,43-45 rue de Citeaux,L'Ebauchoir
1531,,,2.381,48.862,5ad06f59febf316801ad0305,10028.0,Art Museum,1065.0,FR,Paris,38 rue Saint-Maur,Atelier des Lumières
1532,,,2.38,48.862,5585787e498edcdb3d541bd5,13002.0,Bakery,1138.0,FR,Paris,10 Passage Rochebrune 11e,Broken Biscuits
1533,,,2.378,48.851,55199c44498ed951dcccdda3,13236.0,Italian Restaurant,1209.0,FR,Paris,133 rue du Faubourg Saint-Antoine,East Mamma
1534,,,2.378,48.851,55199c44498ed951dcccdda3,13236.0,Italian Restaurant,1344.0,FR,Paris,133 rue du Faubourg Saint-Antoine,East Mamma
1535,,,2.375,48.855,4d38b652acf1b60c57ad8318,13347.0,Tapas Restaurant,1293.0,FR,Paris,22 rue des Taillandiers,Le Chat Ivre
1536,,,2.375,48.855,4d38b652acf1b60c57ad8318,13347.0,Tapas Restaurant,272.0,FR,Paris,22 rue des Taillandiers,Le Chat Ivre
1537,,,2.383,48.837,4adcda15f964a520873721e3,10027.0,Museum,544.0,FR,Paris,51 rue de Bercy,La Cinémathèque française
1538,,,2.383,48.837,4adcda15f964a520873721e3,10027.0,Museum,2418.0,FR,Paris,51 rue de Bercy,La Cinémathèque française
1539,,,2.383,48.837,4adcda15f964a520873721e3,10027.0,Museum,6460.0,FR,Paris,51 rue de Bercy,La Cinémathèque française
1540,,,2.383,48.837,4adcda15f964a520873721e3,10027.0,Museum,4751.0,FR,Paris,51 rue de Bercy,La Cinémathèque française
1541,,,2.382,48.844,591624431b0ea52ea821c07b,13006.0,Beer Bar,544.0,FR,Paris,81 rue du Charolais 12e,Ground Control
1542,,,2.382,48.844,591624431b0ea52ea821c07b,13006.0,Beer Bar,3070.0,FR,Paris,81 rue du Charolais 12e,Ground Control
1543,,,2.382,48.844,591624431b0ea52ea821c07b,13006.0,Beer Bar,5406.0,FR,Paris,81 rue du Charolais 12e,Ground Control
1544,,,2.389,48.833,4b4f8c95f964a520000b27e3,10028.0,Art Museum,893.0,FR,Paris,53 avenue des Terroirs de France,Musée des Arts Forains
1545,,,2.389,48.833,4b4f8c95f964a520000b27e3,10028.0,Art Museum,2099.0,FR,Paris,53 avenue des Terroirs de France,Musée des Arts Forains
1546,,,2.389,48.833,4b4f8c95f964a520000b27e3,10028.0,Art Museum,5991.0,FR,Paris,53 avenue des Terroirs de France,Musée des Arts Forains
1547,,,2.389,48.833,4b4f8c95f964a520000b27e3,10028.0,Art Museum,4372.0,FR,Paris,53 avenue des Terroirs de France,Musée des Arts Forains
1548,,,2.376,48.832,4b1cf16ef964a5209f0a24e3,10024.0,Movie Theater,1297.0,FR,Paris,128-162 avenue de France 13e,MK2 Bibliothèque
1549,,,2.376,48.832,4b1cf16ef964a5209f0a24e3,10024.0,Movie Theater,1808.0,FR,Paris,128-162 avenue de France 13e,MK2 Bibliothèque
1550,,,2.376,48.832,4b1cf16ef964a5209f0a24e3,10024.0,Movie Theater,6959.0,FR,Paris,128-162 avenue de France 13e,MK2 Bibliothèque
1551,,,2.376,48.832,4b1cf16ef964a5209f0a24e3,10024.0,Movie Theater,1674.0,FR,Paris,128-162 avenue de France 13e,MK2 Bibliothèque
1552,,,2.376,48.832,4b1cf16ef964a5209f0a24e3,10024.0,Movie Theater,4133.0,FR,Paris,128-162 avenue de France 13e,MK2 Bibliothèque
1553,,,2.406,48.836,4bb4c84d8786ef3b42a66533,13002.0,Bakery,1444.0,FR,Paris,278 avenue Daumesnil,Vandermeersch
1554,,,2.406,48.836,4bb4c84d8786ef3b42a66533,13002.0,Bakery,3054.0,FR,Paris,278 avenue Daumesnil,Vandermeersch
1555,,,2.406,48.836,4bb4c84d8786ef3b42a66533,13002.0,Bakery,4767.0,FR,Paris,278 avenue Daumesnil,Vandermeersch
1556,,,2.406,48.836,4bb4c84d8786ef3b42a66533,13002.0,Bakery,5107.0,FR,Paris,278 avenue Daumesnil,Vandermeersch
1557,,,2.325,48.851,4b2e385bf964a52067dd24e3,17033.0,Department Store,54.0,FR,Paris,24 rue de Sèvres,Le Bon Marché
1558,,,2.325,48.851,4b2e385bf964a52067dd24e3,17033.0,Department Store,474.0,FR,Paris,24 rue de Sèvres,Le Bon Marché
1559,,,2.325,48.851,4b2e385bf964a52067dd24e3,17033.0,Department Store,271.0,FR,Paris,24 rue de Sèvres,Le Bon Marché
1560,,,2.325,48.851,4b2e385bf964a52067dd24e3,17033.0,Department Store,496.0,FR,Paris,24 rue de Sèvres,Le Bon Marché
1561,,,2.325,48.851,4b2e385bf964a52067dd24e3,17033.0,Department Store,787.0,FR,Paris,24 rue de Sèvres,Le Bon Marché
1562,,,2.324,48.85,4adcda21f964a520fc3921e3,17068.0,Gourmet Store,157.0,FR,Paris,38 rue de Sèvres,La Grande Epicerie de Paris
1563,,,2.324,48.85,4adcda21f964a520fc3921e3,17068.0,Gourmet Store,563.0,FR,Paris,38 rue de Sèvres,La Grande Epicerie de Paris
1564,,,2.324,48.85,4adcda21f964a520fc3921e3,17068.0,Gourmet Store,372.0,FR,Paris,38 rue de Sèvres,La Grande Epicerie de Paris
1565,,,2.324,48.85,4adcda21f964a520fc3921e3,17068.0,Gourmet Store,402.0,FR,Paris,38 rue de Sèvres,La Grande Epicerie de Paris
1566,,,2.324,48.85,4adcda21f964a520fc3921e3,17068.0,Gourmet Store,769.0,FR,Paris,38 rue de Sèvres,La Grande Epicerie de Paris
1567,,,2.327,48.851,5c3235b08afbe0002dcd9eb3,13009.0,Cocktail Bar,153.0,FR,Paris,45 boulevard Raspail 6e,Bar Joséphine
1568,,,2.327,48.851,5c3235b08afbe0002dcd9eb3,13009.0,Cocktail Bar,276.0,FR,Paris,45 boulevard Raspail 6e,Bar Joséphine
1569,,,2.327,48.851,5c3235b08afbe0002dcd9eb3,13009.0,Cocktail Bar,237.0,FR,Paris,45 boulevard Raspail 6e,Bar Joséphine
1570,,,2.327,48.851,5c3235b08afbe0002dcd9eb3,13009.0,Cocktail Bar,610.0,FR,Paris,45 boulevard Raspail 6e,Bar Joséphine
1571,,,2.327,48.851,5c3235b08afbe0002dcd9eb3,13009.0,Cocktail Bar,714.0,FR,Paris,45 boulevard Raspail 6e,Bar Joséphine
1572,,,2.324,48.854,5d6ae3b0ca1763000823441b,13322.0,Peruvian Restaurant,327.0,FR,Paris,53 rue de Grenelle,Coya Paris
1573,,,2.324,48.854,5d6ae3b0ca1763000823441b,13322.0,Peruvian Restaurant,535.0,FR,Paris,53 rue de Grenelle,Coya Paris
1574,,,2.324,48.854,5d6ae3b0ca1763000823441b,13322.0,Peruvian Restaurant,177.0,FR,Paris,53 rue de Grenelle,Coya Paris
1575,,,2.324,48.854,5d6ae3b0ca1763000823441b,13322.0,Peruvian Restaurant,829.0,FR,Paris,53 rue de Grenelle,Coya Paris
1576,,,2.328,48.849,4babdad1f964a5205ecf3ae3,17062.0,Chocolate Store,354.0,FR,Paris,16 rue d'Assas,Jean-Charles Rochoux
1577,,,2.328,48.849,4babdad1f964a5205ecf3ae3,17062.0,Chocolate Store,1401.0,FR,Paris,16 rue d'Assas,Jean-Charles Rochoux
1578,,,2.328,48.849,4babdad1f964a5205ecf3ae3,17062.0,Chocolate Store,317.0,FR,Paris,16 rue d'Assas,Jean-Charles Rochoux
1579,,,2.328,48.849,4babdad1f964a5205ecf3ae3,17062.0,Chocolate Store,472.0,FR,Paris,16 rue d'Assas,Jean-Charles Rochoux
1580,,,2.328,48.849,4babdad1f964a5205ecf3ae3,17062.0,Chocolate Store,581.0,FR,Paris,16 rue d'Assas,Jean-Charles Rochoux
1581,,,2.328,48.849,4babdad1f964a5205ecf3ae3,17062.0,Chocolate Store,487.0,FR,Paris,16 rue d'Assas,Jean-Charles Rochoux
1582,,,2.319,48.848,4b4635eff964a520271a26e3,17061.0,Cheese Store,535.0,FR,Paris,62 rue de Sèvres,Fromagerie Quatrehomme
1583,,,2.319,48.848,4b4635eff964a520271a26e3,17061.0,Cheese Store,167.0,FR,Paris,62 rue de Sèvres,Fromagerie Quatrehomme
1584,,,2.319,48.848,4b4635eff964a520271a26e3,17061.0,Cheese Store,796.0,FR,Paris,62 rue de Sèvres,Fromagerie Quatrehomme
1585,,,2.331,48.853,516d9a47e4b004f2bba1f2b9,13072.0,Asian Restaurant,497.0,FR,Paris,6 rue du Sabot,Blueberry
1586,,,2.331,48.853,516d9a47e4b004f2bba1f2b9,13072.0,Asian Restaurant,122.0,FR,Paris,6 rue du Sabot,Blueberry
1587,,,2.331,48.853,516d9a47e4b004f2bba1f2b9,13072.0,Asian Restaurant,381.0,FR,Paris,6 rue du Sabot,Blueberry
1588,,,2.333,48.851,4adcda1ff964a520843921e3,13002.0,Bakery,563.0,FR,Paris,72 rue Bonaparte Paris,Pierre Hermé
1589,,,2.333,48.851,4adcda1ff964a520843921e3,13002.0,Bakery,143.0,FR,Paris,72 rue Bonaparte Paris,Pierre Hermé
1590,,,2.333,48.851,4adcda1ff964a520843921e3,13002.0,Bakery,499.0,FR,Paris,72 rue Bonaparte Paris,Pierre Hermé
1591,,,2.333,48.851,4adcda1ff964a520843921e3,13002.0,Bakery,968.0,FR,Paris,72 rue Bonaparte Paris,Pierre Hermé
1592,,,2.333,48.851,4adcda1ff964a520843921e3,13002.0,Bakery,789.0,FR,Paris,72 rue Bonaparte Paris,Pierre Hermé
1593,,,2.346,48.851,4b588679f964a5201c5c28e3,17018.0,Bookstore,174.0,FR,Paris,67 boulevard Saint Germain,Album
1594,,,2.346,48.851,4b588679f964a5201c5c28e3,17018.0,Bookstore,878.0,FR,Paris,67 boulevard Saint Germain,Album
1595,,,2.346,48.851,4b588679f964a5201c5c28e3,17018.0,Bookstore,678.0,FR,Paris,67 boulevard Saint Germain,Album
1596,,,2.347,48.853,4adcda21f964a520f23921e3,17018.0,Bookstore,276.0,FR,Paris,37 rue de la Bûcherie,Shakespeare & Company
1597,,,2.347,48.853,4adcda21f964a520f23921e3,17018.0,Bookstore,1027.0,FR,Paris,37 rue de la Bûcherie,Shakespeare & Company
1598,,,2.347,48.853,4adcda21f964a520f23921e3,17018.0,Bookstore,853.0,FR,Paris,37 rue de la Bûcherie,Shakespeare & Company
1599,,,2.348,48.85,5b394cae92e7a9002c724cf9,13002.0,Bakery,387.0,FR,Paris,47ter boulevard Saint-Germain,La Maison d'Isabelle
1600,,,2.348,48.85,5b394cae92e7a9002c724cf9,13002.0,Bakery,726.0,FR,Paris,47ter boulevard Saint-Germain,La Maison d'Isabelle
1601,,,2.348,48.85,5b394cae92e7a9002c724cf9,13002.0,Bakery,1697.0,FR,Paris,47ter boulevard Saint-Germain,La Maison d'Isabelle
1602,,,2.348,48.85,5b394cae92e7a9002c724cf9,13002.0,Bakery,556.0,FR,Paris,47ter boulevard Saint-Germain,La Maison d'Isabelle
1603,,,2.343,48.85,4bc0790f4cdfc9b6b4de9221,10026.0,Indie Movie Theater,229.0,FR,Paris,9 rue Champollion,La Filmothèque du Quartier Latin
1604,,,2.343,48.85,4bc0790f4cdfc9b6b4de9221,10026.0,Indie Movie Theater,1422.0,FR,Paris,9 rue Champollion,La Filmothèque du Quartier Latin
1605,,,2.343,48.85,4bc0790f4cdfc9b6b4de9221,10026.0,Indie Movie Theater,929.0,FR,Paris,9 rue Champollion,La Filmothèque du Quartier Latin
1606,,,2.343,48.85,4bc0790f4cdfc9b6b4de9221,10026.0,Indie Movie Theater,708.0,FR,Paris,9 rue Champollion,La Filmothèque du Quartier Latin
1607,,,2.348,48.853,4c00046cc30a2d7fbeda111d,16041.0,Plaza,408.0,FR,Paris,place du Parvis-Notre-Dame,Parvis Notre-Dame — Place Jean-Paul II
1608,,,2.299,48.882,4c113790ce57c928a42383d2,13145.0,Fast Food Restaurant,158.0,FR,Paris,8 rue Gustave Flaubert,Il était une oie dans le Sud-Ouest
1609,,,2.299,48.882,4c113790ce57c928a42383d2,13145.0,Fast Food Restaurant,851.0,FR,Paris,8 rue Gustave Flaubert,Il était une oie dans le Sud-Ouest
1610,,,2.299,48.882,4c113790ce57c928a42383d2,13145.0,Fast Food Restaurant,998.0,FR,Paris,8 rue Gustave Flaubert,Il était une oie dans le Sud-Ouest
1611,,,2.299,48.883,4c224a3611de20a1b7a084ce,13002.0,Bakery,220.0,FR,Paris,143 rue de Courcelles,Boulangerie-Pâtisserie Lohezic
1612,,,2.299,48.883,4c224a3611de20a1b7a084ce,13002.0,Bakery,825.0,FR,Paris,143 rue de Courcelles,Boulangerie-Pâtisserie Lohezic
1613,,,2.296,48.88,4d602544865a224b2091a785,13148.0,French Restaurant,441.0,FR,Paris,16 rue Saussier Leroy,L'Huîtrier
1614,,,2.296,48.88,4d602544865a224b2091a785,13148.0,French Restaurant,710.0,FR,Paris,16 rue Saussier Leroy,L'Huîtrier
1615,,,2.296,48.88,4d602544865a224b2091a785,13148.0,French Restaurant,710.0,FR,Paris,16 rue Saussier Leroy,L'Huîtrier
1616,,,2.309,48.879,4adcda09f964a5200d3421e3,16032.0,Park,645.0,FR,Paris,35-41 boulevard de Courcelles,Parc Monceau
1617,,,2.296,48.877,5127d6aee4b0e1bb8f8a9f42,13236.0,Italian Restaurant,659.0,FR,Paris,14 rue de l'Etoile,La Cantina Chic
1618,,,2.296,48.877,5127d6aee4b0e1bb8f8a9f42,13236.0,Italian Restaurant,840.0,FR,Paris,14 rue de l'Etoile,La Cantina Chic
1619,,,2.296,48.877,5127d6aee4b0e1bb8f8a9f42,13236.0,Italian Restaurant,555.0,FR,Paris,14 rue de l'Etoile,La Cantina Chic
1620,,,2.301,48.877,4adcda15f964a520a53721e3,10037.0,Concert Hall,546.0,FR,Paris,252 rue du Faubourg Saint Honore 8th,Salle Pleyel
1621,,,2.301,48.877,4adcda15f964a520a53721e3,10037.0,Concert Hall,1195.0,FR,Paris,252 rue du Faubourg Saint Honore 8th,Salle Pleyel
1622,,,2.301,48.877,4adcda15f964a520a53721e3,10037.0,Concert Hall,978.0,FR,Paris,252 rue du Faubourg Saint Honore 8th,Salle Pleyel
1623,,,2.301,48.876,50abd239e4b0869279d6a3af,13263.0,Japanese Restaurant,716.0,FR,Paris,35-37 avenue Hoche,Matsuhisa Paris
1624,,,2.301,48.876,50abd239e4b0869279d6a3af,13263.0,Japanese Restaurant,1250.0,FR,Paris,35-37 avenue Hoche,Matsuhisa Paris
1625,,,2.301,48.876,50abd239e4b0869279d6a3af,13263.0,Japanese Restaurant,916.0,FR,Paris,35-37 avenue Hoche,Matsuhisa Paris
1626,,,2.297,48.873,4bd816a009ecb7135f03487c,17045.0,Jewelry Store,981.0,FR,Paris,154 avenue des Champs Elysées,Cartier
1627,,,2.297,48.873,4bd816a009ecb7135f03487c,17045.0,Jewelry Store,1266.0,FR,Paris,154 avenue des Champs Elysées,Cartier
1628,,,2.297,48.873,4bd816a009ecb7135f03487c,17045.0,Jewelry Store,742.0,FR,Paris,154 avenue des Champs Elysées,Cartier
1629,,,2.311,48.875,4bbddcf1593fef3b31ea0356,10027.0,Museum,1000.0,FR,Paris,158 boulevard Haussmann,Musée Jacquemart André
1630,,,2.301,48.872,5b982ec3f5e9d7002cc1cd2d,17023.0,Computers and Electronics Retail,1082.0,FR,Paris,114 avenue des Champs-Élysées,Apple Champs-Élysées
1631,,,2.301,48.872,5b982ec3f5e9d7002cc1cd2d,17023.0,Computers and Electronics Retail,1054.0,FR,Paris,114 avenue des Champs-Élysées,Apple Champs-Élysées
1632,,,2.291,48.876,4c45eb2df1b5c9b67e0278ef,13145.0,Fast Food Restaurant,740.0,FR,Paris,16 rue des Acacias,Le Crabe Marteau
1633,,,2.291,48.876,4c45eb2df1b5c9b67e0278ef,13145.0,Fast Food Restaurant,180.0,FR,Paris,16 rue des Acacias,Le Crabe Marteau
1634,,,2.365,48.872,4af31753f964a52092ea21e3,13003.0,Bar,163.0,FR,Paris,80-82 quai de Jemmapes,Le Comptoir Général
1635,,,2.364,48.873,4c012b5f9a950f47ffa308c6,17018.0,Bookstore,250.0,FR,Paris,83 quai de Valmy 10e,Artazart
1636,,,2.364,48.873,4c012b5f9a950f47ffa308c6,17018.0,Bookstore,994.0,FR,Paris,83 quai de Valmy 10e,Artazart
1637,,,2.362,48.873,529a070211d2dd104e654b40,13002.0,Bakery,402.0,FR,Paris,39 rue des Vinaigriers,Pâtisserie Boulangerie Liberté
1638,,,2.362,48.873,529a070211d2dd104e654b40,13002.0,Bakery,855.0,FR,Paris,39 rue des Vinaigriers,Pâtisserie Boulangerie Liberté
1639,,,2.36,48.87,5d3982ef052ad0000874b876,13002.0,Bakery,475.0,FR,Paris,32 rue de Château d'Eau,MaMiche
1640,,,2.364,48.877,4b62faecf964a520ff5b2ae3,19014.0,Hotel,638.0,FR,Paris,100 quai de Valmy,Canal Saint-Martin
1641,,,2.364,48.877,4b62faecf964a520ff5b2ae3,19014.0,Hotel,781.0,FR,Paris,100 quai de Valmy,Canal Saint-Martin
1642,,,2.357,48.87,5415ae4f498e9aee38f6a39e,13009.0,Cocktail Bar,654.0,FR,Paris,5 rue Bouchardon 10e,CopperBay
1643,,,2.33,48.873,4b673be3f964a520e5422be3,17033.0,Department Store,210.0,FR,Paris,35 boulevard Haussmann,Galeries Lafayette
1644,,,2.326,48.875,4eca363629c22cc60f820bdc,13298.0,Lebanese Restaurant,213.0,FR,Paris,8 rue de l'Isly,La Pause Libanaise
1645,,,2.332,48.872,4b54148df964a520b0b127e3,10039.0,Music Venue,348.0,FR,Paris,8 rue Scribe,Palais Garnier (Opéra Garnier)
1646,,,2.329,48.871,4adcda1af964a520dc3821e3,10037.0,Concert Hall,343.0,FR,Paris,10 square Edouard VII,Théâtre Edouard VII
1647,,,2.332,48.871,4bc30cc12a89ef3bf670f488,16041.0,Plaza,478.0,FR,Paris,Place. de l'Opéra,Place de l'Opéra
1648,,,2.328,48.87,4adcda15f964a520c53721e3,10037.0,Concert Hall,468.0,FR,Paris,28 boulevard des Capucines 9e,L'Olympia
1649,,,2.332,48.87,4c8b7bb1e51e6dcbf58a72de,17060.0,Candy Store,589.0,FR,Paris,49 avenue de l'Opéra,La Cure Gourmande
1650,,,2.331,48.841,4b9d145ff964a520ca8d36e3,13148.0,French Restaurant,543.0,FR,Paris,6 rue Léopold Robert,Le Bistrot des Campagnes
1651,,,2.331,48.841,4b9d145ff964a520ca8d36e3,13148.0,French Restaurant,1783.0,FR,Paris,6 rue Léopold Robert,Le Bistrot des Campagnes
1652,,,2.331,48.841,4b9d145ff964a520ca8d36e3,13148.0,French Restaurant,437.0,FR,Paris,6 rue Léopold Robert,Le Bistrot des Campagnes
1653,,,2.342,48.845,4adcda08f964a5206f3321e3,13025.0,Wine Bar,898.0,FR,Paris,30 rue Gay Lussac 5e,Les Papilles
1654,,,2.342,48.845,4adcda08f964a5206f3321e3,13025.0,Wine Bar,740.0,FR,Paris,30 rue Gay Lussac 5e,Les Papilles
1655,,,2.342,48.845,4adcda08f964a5206f3321e3,13025.0,Wine Bar,1356.0,FR,Paris,30 rue Gay Lussac 5e,Les Papilles
1656,,,2.342,48.845,4adcda08f964a5206f3321e3,13025.0,Wine Bar,5987.0,FR,Paris,30 rue Gay Lussac 5e,Les Papilles
1657,,,2.342,48.845,4adcda08f964a5206f3321e3,13025.0,Wine Bar,555.0,FR,Paris,30 rue Gay Lussac 5e,Les Papilles
1658,,,2.337,48.847,55536fca498e1bf662c2ed7d,16016.0,Fountain,1045.0,FR,Paris,Jardin du Luxembourg,Grand Bassin du Jardin du Luxembourg
1659,,,2.337,48.847,55536fca498e1bf662c2ed7d,16016.0,Fountain,1131.0,FR,Paris,Jardin du Luxembourg,Grand Bassin du Jardin du Luxembourg
1660,,,2.337,48.847,55536fca498e1bf662c2ed7d,16016.0,Fountain,1772.0,FR,Paris,Jardin du Luxembourg,Grand Bassin du Jardin du Luxembourg
1661,,,2.337,48.847,55536fca498e1bf662c2ed7d,16016.0,Fountain,921.0,FR,Paris,Jardin du Luxembourg,Grand Bassin du Jardin du Luxembourg
1662,,,2.337,48.847,55536fca498e1bf662c2ed7d,16016.0,Fountain,619.0,FR,Paris,Jardin du Luxembourg,Grand Bassin du Jardin du Luxembourg
1663,,,2.34,48.846,4ba8b203f964a520a6e739e3,16017.0,Garden,1059.0,FR,Paris,6e Arrondissement,Luxembourg Garden (Jardin du Luxembourg)
1664,,,2.34,48.846,4ba8b203f964a520a6e739e3,16017.0,Garden,1184.0,FR,Paris,6e Arrondissement,Luxembourg Garden (Jardin du Luxembourg)
1665,,,2.34,48.846,4ba8b203f964a520a6e739e3,16017.0,Garden,1818.0,FR,Paris,6e Arrondissement,Luxembourg Garden (Jardin du Luxembourg)
1666,,,2.34,48.846,4ba8b203f964a520a6e739e3,16017.0,Garden,973.0,FR,Paris,6e Arrondissement,Luxembourg Garden (Jardin du Luxembourg)
1667,,,2.34,48.846,4ba8b203f964a520a6e739e3,16017.0,Garden,580.0,FR,Paris,6e Arrondissement,Luxembourg Garden (Jardin du Luxembourg)
1668,,,2.322,48.842,4b5f3d50f964a52066af29e3,16046.0,Scenic Lookout,1153.0,FR,Paris,33 avenue du Maine,Montparnasse Tower Observation Deck (Observatoire Panoramique de la Tour Montparnasse)
1669,,,2.322,48.842,4b5f3d50f964a52066af29e3,16046.0,Scenic Lookout,548.0,FR,Paris,33 avenue du Maine,Montparnasse Tower Observation Deck (Observatoire Panoramique de la Tour Montparnasse)
1670,,,2.322,48.842,4b5f3d50f964a52066af29e3,16046.0,Scenic Lookout,616.0,FR,Paris,33 avenue du Maine,Montparnasse Tower Observation Deck (Observatoire Panoramique de la Tour Montparnasse)
1671,,,2.347,48.847,4e83dade4fc6f78732f6b025,16041.0,Plaza,1193.0,FR,Paris,place du Panthéon,Place du Panthéon
1672,,,2.347,48.847,4e83dade4fc6f78732f6b025,16041.0,Plaza,589.0,FR,Paris,place du Panthéon,Place du Panthéon
1673,,,2.347,48.847,4e83dade4fc6f78732f6b025,16041.0,Plaza,1413.0,FR,Paris,place du Panthéon,Place du Panthéon
1674,,,2.347,48.847,4e83dade4fc6f78732f6b025,16041.0,Plaza,367.0,FR,Paris,place du Panthéon,Place du Panthéon
1675,,,2.339,48.848,5096523c498ecb7e553bc676,16016.0,Fountain,1186.0,FR,Paris,Jardin du Luxembourg,Medici Fountain (Fontaine Médicis)
1676,,,2.328,48.858,4cab440436fa6dcb2f6cd778,10004.0,Art Gallery,552.0,FR,Paris,41 rue de Verneuil,Art Gallery l'Oeil et la Main
1677,,,2.359,48.843,4adcda09f964a5200c3421e3,16000.0,Landmarks and Outdoors,551.0,FR,Paris,place Valhubert,Jardin des Plantes
1678,,,2.359,48.843,4adcda09f964a5200c3421e3,16000.0,Landmarks and Outdoors,3334.0,FR,Paris,place Valhubert,Jardin des Plantes
1679,,,2.359,48.843,4adcda09f964a5200c3421e3,16000.0,Landmarks and Outdoors,1038.0,FR,Paris,place Valhubert,Jardin des Plantes
1680,,,2.359,48.843,4adcda09f964a5200c3421e3,16000.0,Landmarks and Outdoors,5502.0,FR,Paris,place Valhubert,Jardin des Plantes
1681,,,2.359,48.843,4adcda09f964a5200c3421e3,16000.0,Landmarks and Outdoors,751.0,FR,Paris,place Valhubert,Jardin des Plantes
1682,,,2.355,48.849,4d3898babb0d721ea09c55e3,13027.0,Bistro,556.0,FR,Paris,20 rue Foss\u00e9s Saint Bernard,Au Moulin à Vent
1683,,,2.355,48.849,4d3898babb0d721ea09c55e3,13027.0,Bistro,1494.0,FR,Paris,20 rue Foss\u00e9s Saint Bernard,Au Moulin à Vent
1684,,,2.355,48.849,4d3898babb0d721ea09c55e3,13027.0,Bistro,554.0,FR,Paris,20 rue Foss\u00e9s Saint Bernard,Au Moulin à Vent
1685,,,2.312,48.848,51602778e4b01c5e825f4878,13047.0,Pastry Shop,675.0,FR,Paris,65 avenue de Breteuil,Mori Yoshida
1686,,,2.315,48.856,4dc790c01fc72e86376fc69c,16017.0,Garden,1054.0,FR,Paris,79 rue de Varenne,Jardin du Musée Rodin
1687,,,2.392,48.895,4bc773712f94d13ac3f3117f,10037.0,Concert Hall,1731.0,FR,Paris,211 avenue Jean Jaurès 19e,Cabaret Sauvage
1688,,,2.391,48.891,4adcda0af964a520203421e3,16039.0,Urban Park,2048.0,FR,Paris,211 avenue Jean Jaurès,Parc de la Villette
1689,,,2.394,48.892,50f910b8e4b0f0c81f22e25a,10037.0,Concert Hall,2250.0,FR,Paris,211 avenue Jean Jaurès 75019,Philharmonie de Paris
1690,,,2.394,48.89,4adcda15f964a520a63721e3,10027.0,Museum,2365.0,FR,Paris,221 avenue Jean Jaurès,Cité de la Musique
1691,,,2.379,48.888,5571d51f498e9ea789f8342d,13006.0,Beer Bar,2553.0,FR,Paris,41 bis quai de la Loire,Paname Brewing Company
1692,,,2.361,48.891,4b091db5f964a520491423e3,13065.0,Restaurant,2765.0,FR,Paris,10 rue de l'Olive,Marché de l'Olive
1693,,,2.382,48.88,4adcda09f964a520113421e3,16032.0,Park,3399.0,FR,Paris,rue Botzaris,Boulangerie des Buttes Chaumont (Parc des Buttes-Chaumont)
1694,,,2.339,48.905,4adcda19f964a520ac3821e3,12082.0,Organization,3426.0,FR,Saint-Ouen,1 rue Charles Garnier,Mains d'Oeuvres
1695,,,2.344,48.891,51eaf458498e71cde524700b,17080.0,Wine Store,3696.0,FR,Paris,65 rue du mont-Cenis,Comestibles et Marchand de Vins
1696,,,2.345,48.887,5710c77a498e3021c0641aa9,13000.0,Dining and Drinking,3955.0,FR,Paris,10 rue Lamarck 18e,Hardware Société
1697,,,2.335,48.82,4adcda0af964a520243421e3,16032.0,Park,2947.0,FR,Paris,37 boulevard Jourdan,Parc Montsouris
1698,,,2.335,48.82,4adcda0af964a520243421e3,16032.0,Park,1805.0,FR,Paris,37 boulevard Jourdan,Parc Montsouris
1699,,,2.335,48.82,4adcda0af964a520243421e3,16032.0,Park,4024.0,FR,Paris,37 boulevard Jourdan,Parc Montsouris
1700,,,2.337,48.818,4dd7daae7d8b322663f9a365,16032.0,Park,2896.0,FR,Paris,Cité Internationale Universitaire,Parc de la Cité Internationale Universitaire
1701,,,2.337,48.818,4dd7daae7d8b322663f9a365,16032.0,Park,3716.0,FR,Paris,Cité Internationale Universitaire,Parc de la Cité Internationale Universitaire
1702,,,2.409,48.835,4adcda09f964a5200f3421e3,19019.0,Vacation Rental,2250.0,FR,Paris,293 avenue Dausmenil,Bois de Vincennes
1703,,,2.441,48.845,4adcda09f964a520103421e3,16011.0,Castle,2659.0,FR,Vincennes,avenue de Paris,Métro Château de Vincennes (Château de Vincennes)
1704,,,2.219,48.841,4b790b65f964a520ede92ee3,13064.0,Pizzeria,1157.0,FR,Saint-Cloud,21 rue d'Orléans,Le Garde-Manger
1705,,,2.219,48.841,4b790b65f964a520ede92ee3,13064.0,Pizzeria,2837.0,FR,Saint-Cloud,21 rue d'Orléans,Le Garde-Manger
1706,,,2.254,48.836,4bab6466f964a520d1a53ae3,13027.0,Bistro,1540.0,FR,Boulogne-Billancourt,33 rue Marcel Dassault,Mon Bistrot
1707,,,2.254,48.836,4bab6466f964a520d1a53ae3,13027.0,Bistro,5099.0,FR,Boulogne-Billancourt,33 rue Marcel Dassault,Mon Bistrot
1708,,,2.253,48.842,4adcda15f964a520c43721e3,18001.0,Athletic Field,1634.0,FR,Paris,24 rue du Commandant Guilbaud 16e,Parc des Princes
1709,,,2.253,48.842,4adcda15f964a520c43721e3,18001.0,Athletic Field,4723.0,FR,Paris,24 rue du Commandant Guilbaud 16e,Parc des Princes
1710,,,2.249,48.847,4be3d3e6cbdbef3bf8a360d8,18043.0,Racquetball Club,1773.0,FR,Paris,Stade Roland Garros,Court Philippe Chatrier
1711,,,2.249,48.847,4be3d3e6cbdbef3bf8a360d8,18043.0,Racquetball Club,4192.0,FR,Paris,Stade Roland Garros,Court Philippe Chatrier
1712,,,2.251,48.847,4bb7179b2ea19521f38aac2f,13152.0,Brasserie,1699.0,FR,Paris,2 bis avenue Gordon Bennett,Stade Roland Garros
1713,,,2.251,48.847,4bb7179b2ea19521f38aac2f,13152.0,Brasserie,4138.0,FR,Paris,2 bis avenue Gordon Bennett,Stade Roland Garros
1714,,,2.253,48.847,4bf7e54b5efe2d7f1daa6934,16017.0,Garden,1900.0,FR,Paris,3 avenue de la Porte d'Auteuil,Jardin des Serres d'Auteuil
1715,,,2.253,48.847,4bf7e54b5efe2d7f1daa6934,16017.0,Garden,4443.0,FR,Paris,3 avenue de la Porte d'Auteuil,Jardin des Serres d'Auteuil
1716,,,2.197,48.834,4bc1d0f3461576b06e597c32,16032.0,Park,2634.0,FR,Saint-Cloud,Domaine National de Saint-Cloud,Parc de Saint-Cloud (Domaine National de Saint-Cloud)
1717,,,2.197,48.834,4bc1d0f3461576b06e597c32,16032.0,Park,3085.0,FR,Saint-Cloud,Domaine National de Saint-Cloud,Parc de Saint-Cloud (Domaine National de Saint-Cloud)
1718,,,2.278,48.842,4bfd07b78992a5930373abb0,13035.0,Coffee Shop,3376.0,FR,Paris,48 rue Balard,La Grenouille Bleue
1719,,,2.246,48.87,4bcd8a9b8920b7130ad49fdc,16017.0,Garden,4054.0,FR,Paris,route de Sèvres à Neuilly,Parc de Bagatelle
1720,,,2.246,48.87,4bcd8a9b8920b7130ad49fdc,16017.0,Garden,3884.0,FR,Paris,route de Sèvres à Neuilly,Parc de Bagatelle
1721,,,2.358,48.878,4b6094bcf964a520b3ee29e3,13067.0,African Restaurant,273.0,FR,Paris,5 rue des Deux Gares,Le Dellys
1722,,,2.349,48.878,504cdce545b0de0e10c550eb,13027.0,Bistro,394.0,FR,Paris,92 rue du Faubourg Poissonnière 9e,Abri
1723,,,2.35,48.876,5daf5ce348f796000802bc27,13236.0,Italian Restaurant,494.0,FR,Paris,44 rue de Paradis,Libertino by Big Mamma
1724,,,2.353,48.873,59231a2d97461712d41fbd89,13377.0,Vegan and Vegetarian Restaurant,662.0,FR,Paris,11 rue des Petites Ecuries,Jah Jah By le Tricycle
1725,,,2.35,48.873,59822a59e96d0c565387343e,13148.0,French Restaurant,728.0,FR,Paris,27 rue d ́Hauteville,Eels
1726,,,2.344,48.885,4adcda0ff964a5207f3521e3,10027.0,Museum,955.0,FR,Paris,2 rue Ronsard,Halle Saint-Pierre
1727,,,2.3,48.774,4d2c4008467d6ea865cbe695,10030.0,History Museum,5791.0,FR,Sceaux,domaine du Parc de Sceaux,Château de Sceaux
1728,,,2.372,48.855,5c67f4e8a2a6ce002c36a55f,13034.0,Café,197.0,FR,Paris,12 rue Saint Sabin,Le Café Alain Ducasse Avec 1895 By Lavazza
1729,,,2.373,48.854,4adcda08f964a520aa3321e3,10039.0,Music Venue,327.0,FR,Paris,5 passage Louis-Philippe 11e,Café de la Danse
1730,,,2.367,48.855,4b82c9adf964a520f7e430e3,16041.0,Plaza,560.0,FR,Paris,24 rue des Tournelles,Place des Vosges
1731,,,2.367,48.855,509ceef329a664775e200554,17058.0,Beer Store,495.0,FR,Paris,16 rue des Tournelles,La Moustache Blanche
1732,,,2.374,48.852,564387f4498ef77ac348d5c7,13064.0,Pizzeria,516.0,FR,Paris,9 rue de Charonne,Nove
1733,,,2.367,48.853,5006b402e4b052ccd4ab259f,13377.0,Vegan and Vegetarian Restaurant,614.0,FR,Paris,9 rue Jacques Coeur,Café Ginger
1734,,,2.364,48.856,5023fdf4e4b0b3d65ba53fa9,13046.0,Ice Cream Parlor,646.0,FR,Paris,1 rue des Francs Bourgeois,Amorino
